<?xml version="1.0" encoding="UTF-8"?>
<gpx xmlns="http://www.topografix.com/GPX/1/1" xmlns:gpxtpx="http://www.garmin.com/xmlschemas/TrackPointExtension/v1" xmlns:xsi="http://www.w3.org/2001/XMLSchema-instance" xsi:schemaLocation="http://www.topografix.com/GPX/1/1 http://www.topografix.com/GPX/1/1/gpx.xsd" version="1.1" creator="gpx.py -- https://github.com/tkrajina/gpxpy">
  <trk>
    <name>gpx from keep</name>
    <type>Walk</type>
    <trkseg>
      <trkpt lat="43.948301523165675" lon="116.05728748705776">
        <ele>976.6177978515625</ele>
        <time>2026-10-06T02:58:09Z</time>
      </trkpt>
      <trkpt lat="43.94832621873763" lon="116.05749814921757">
        <ele>973.997314453125</ele>
        <time>2026-10-06T02:58:36Z</time>
      </trkpt>
      <trkpt lat="43.94828298136541" lon="116.05763793563993">
        <ele>974.188720703125</ele>
        <time>2026-10-06T02:58:51Z</time>
      </trkpt>
      <trkpt lat="43.94832781657454" lon="116.05776572837037">
        <ele>975.1453857421875</ele>
        <time>2026-10-06T02:59:12Z</time>
      </trkpt>
      <trkpt lat="43.94827458512004" lon="116.05789852936073">
        <ele>973.4931640625</ele>
        <time>2026-10-06T02:59:33Z</time>
      </trkpt>
      <trkpt lat="43.94821348364645" lon="116.05794147199093">
        <ele>972.705810546875</ele>
        <time>2026-10-06T02:59:42Z</time>
      </trkpt>
      <trkpt lat="43.94815242101537" lon="116.05795845501851">
        <ele>975.849853515625</ele>
        <time>2026-10-06T03:02:06Z</time>
      </trkpt>
      <trkpt lat="43.94818949734173" lon="116.057922505173">
        <ele>974.523681640625</ele>
        <time>2026-10-06T03:07:15Z</time>
      </trkpt>
      <trkpt lat="43.94816026655625" lon="116.05806528822275">
        <ele>973.1124267578125</ele>
        <time>2026-10-06T03:08:18Z</time>
      </trkpt>
      <trkpt lat="43.948182400580784" lon="116.05798441010808">
        <ele>976.450927734375</ele>
        <time>2026-10-06T03:08:54Z</time>
      </trkpt>
      <trkpt lat="43.94819027745135" lon="116.05807027588274">
        <ele>975.3790283203125</ele>
        <time>2026-10-06T03:13:48Z</time>
      </trkpt>
      <trkpt lat="43.94812708159817" lon="116.05817612224689">
        <ele>976.22900390625</ele>
        <time>2026-10-06T03:14:06Z</time>
      </trkpt>
      <trkpt lat="43.94803792356366" lon="116.05824602844237">
        <ele>976.011474609375</ele>
        <time>2026-10-06T03:14:18Z</time>
      </trkpt>
      <trkpt lat="43.947926607808554" lon="116.05841378866491">
        <ele>975.9305419921875</ele>
        <time>2026-10-06T03:14:51Z</time>
      </trkpt>
      <trkpt lat="43.947839407639215" lon="116.05851364993597">
        <ele>973.845947265625</ele>
        <time>2026-10-06T03:15:03Z</time>
      </trkpt>
      <trkpt lat="43.94778731131741" lon="116.05855759119092">
        <ele>975.348876953125</ele>
        <time>2026-10-06T03:15:24Z</time>
      </trkpt>
      <trkpt lat="43.94771428578848" lon="116.05854462214307">
        <ele>977.470458984375</ele>
        <time>2026-10-06T03:15:33Z</time>
      </trkpt>
      <trkpt lat="43.947713377669196" lon="116.05848171795635">
        <ele>980.6729736328125</ele>
        <time>2026-10-06T03:15:45Z</time>
      </trkpt>
      <trkpt lat="43.94773730423897" lon="116.05854162315127">
        <ele>974.950439453125</ele>
        <time>2026-10-06T03:15:57Z</time>
      </trkpt>
      <trkpt lat="43.94769534904337" lon="116.05849370248971">
        <ele>978.1368408203125</ele>
        <time>2026-10-06T03:16:00Z</time>
      </trkpt>
      <trkpt lat="43.947634097765004" lon="116.05863949064762">
        <ele>977.8870849609375</ele>
        <time>2026-10-06T03:16:18Z</time>
      </trkpt>
      <trkpt lat="43.94769493647726" lon="116.05877527627875">
        <ele>978.5029296875</ele>
        <time>2026-10-06T03:16:36Z</time>
      </trkpt>
      <trkpt lat="43.947665991668" lon="116.05872535597896">
        <ele>977.314697265625</ele>
        <time>2026-10-06T03:16:45Z</time>
      </trkpt>
      <trkpt lat="43.94754794440136" lon="116.05870839976298">
        <ele>973.932861328125</ele>
        <time>2026-10-06T03:16:51Z</time>
      </trkpt>
      <trkpt lat="43.94745273768617" lon="116.05881026096817">
        <ele>978.5810546875</ele>
        <time>2026-10-06T03:16:54Z</time>
      </trkpt>
      <trkpt lat="43.947299482928436" lon="116.05892111825183">
        <ele>978.083984375</ele>
        <time>2026-10-06T03:17:24Z</time>
      </trkpt>
      <trkpt lat="43.94717917370551" lon="116.05908389385066">
        <ele>976.001953125</ele>
        <time>2026-10-06T03:17:51Z</time>
      </trkpt>
      <trkpt lat="43.947125094540326" lon="116.05911585466534">
        <ele>976.3818359375</ele>
        <time>2026-10-06T03:18:15Z</time>
      </trkpt>
      <trkpt lat="43.947021807099745" lon="116.05927163980826">
        <ele>975.977783203125</ele>
        <time>2026-10-06T03:18:51Z</time>
      </trkpt>
      <trkpt lat="43.94700769956347" lon="116.05934054036557">
        <ele>980.004638671875</ele>
        <time>2026-10-06T03:19:15Z</time>
      </trkpt>
      <trkpt lat="43.946955626265606" lon="116.0593695057555">
        <ele>978.665771484375</ele>
        <time>2026-10-06T03:19:24Z</time>
      </trkpt>
      <trkpt lat="43.94692367407061" lon="116.05932257977953">
        <ele>978.229248046875</ele>
        <time>2026-10-06T03:19:33Z</time>
      </trkpt>
      <trkpt lat="43.94687348749553" lon="116.05943142743267">
        <ele>979.8868408203125</ele>
        <time>2026-10-06T03:19:48Z</time>
      </trkpt>
      <trkpt lat="43.946813495185275" lon="116.05940048212098">
        <ele>980.306884765625</ele>
        <time>2026-10-06T03:19:54Z</time>
      </trkpt>
      <trkpt lat="43.946766456473" lon="116.05940747909206">
        <ele>979.8692626953125</ele>
        <time>2026-10-06T03:20:00Z</time>
      </trkpt>
      <trkpt lat="43.946567155085575" lon="116.0595333254157">
        <ele>977.49658203125</ele>
        <time>2026-10-06T03:20:42Z</time>
      </trkpt>
      <trkpt lat="43.94650407246758" lon="116.05956428991017">
        <ele>976.060546875</ele>
        <time>2026-10-06T03:21:06Z</time>
      </trkpt>
      <trkpt lat="43.94643405393796" lon="116.05954732547542">
        <ele>977.03564453125</ele>
        <time>2026-10-06T03:21:15Z</time>
      </trkpt>
      <trkpt lat="43.946281107464" lon="116.05944449956272">
        <ele>976.114501953125</ele>
        <time>2026-10-06T03:21:36Z</time>
      </trkpt>
      <trkpt lat="43.94621091494834" lon="116.05954935690251">
        <ele>975.4879150390625</ele>
        <time>2026-10-06T03:21:57Z</time>
      </trkpt>
      <trkpt lat="43.94620381960856" lon="116.05961326476908">
        <ele>975.5657958984375</ele>
        <time>2026-10-06T03:22:03Z</time>
      </trkpt>
      <trkpt lat="43.94617672642387" lon="116.05966719046538">
        <ele>974.6737060546875</ele>
        <time>2026-10-06T03:22:39Z</time>
      </trkpt>
      <trkpt lat="43.94614860300564" lon="116.05974208608407">
        <ele>974.283447265625</ele>
        <time>2026-10-06T03:23:39Z</time>
      </trkpt>
      <trkpt lat="43.94610137929998" lon="116.0598798941817">
        <ele>973.670654296875</ele>
        <time>2026-10-06T03:24:09Z</time>
      </trkpt>
      <trkpt lat="43.94607626542795" lon="116.05994979744247">
        <ele>973.26220703125</ele>
        <time>2026-10-06T03:24:48Z</time>
      </trkpt>
      <trkpt lat="43.946041187807296" lon="116.05998974548145">
        <ele>973.43798828125</ele>
        <time>2026-10-06T03:25:21Z</time>
      </trkpt>
      <trkpt lat="43.946023040682334" lon="116.06008660956338">
        <ele>974.166748046875</ele>
        <time>2026-10-06T03:25:27Z</time>
      </trkpt>
      <trkpt lat="43.94598894151579" lon="116.06014253498118">
        <ele>975.164306640625</ele>
        <time>2026-10-06T03:25:39Z</time>
      </trkpt>
      <trkpt lat="43.94598955068033" lon="116.06042313707044">
        <ele>977.3751220703125</ele>
        <time>2026-10-06T03:26:18Z</time>
      </trkpt>
      <trkpt lat="43.94596944701933" lon="116.0604890473965">
        <ele>977.1507568359375</ele>
        <time>2026-10-06T03:27:00Z</time>
      </trkpt>
      <trkpt lat="43.945983350485875" lon="116.06056493874728">
        <ele>977.7020263671875</ele>
        <time>2026-10-06T03:27:54Z</time>
      </trkpt>
      <trkpt lat="43.94599526813608" lon="116.06062984608748">
        <ele>977.4564208984375</ele>
        <time>2026-10-06T03:28:09Z</time>
      </trkpt>
      <trkpt lat="43.94600818657716" lon="116.06069475352078">
        <ele>977.394775390625</ele>
        <time>2026-10-06T03:29:18Z</time>
      </trkpt>
      <trkpt lat="43.94600707057995" lon="116.06077863700419">
        <ele>976.384033203125</ele>
        <time>2026-10-06T03:30:03Z</time>
      </trkpt>
      <trkpt lat="43.946023969976814" lon="116.06085952227303">
        <ele>976.3984375</ele>
        <time>2026-10-06T03:30:09Z</time>
      </trkpt>
      <trkpt lat="43.94606093376104" lon="116.06090245721319">
        <ele>975.5205078125</ele>
        <time>2026-10-06T03:30:18Z</time>
      </trkpt>
      <trkpt lat="43.94608483240873" lon="116.06098733649468">
        <ele>977.10888671875</ele>
        <time>2026-10-06T03:30:27Z</time>
      </trkpt>
      <trkpt lat="43.94604486117794" lon="116.06094839629598">
        <ele>977.357177734375</ele>
        <time>2026-10-06T03:31:00Z</time>
      </trkpt>
      <trkpt lat="43.94621365433001" lon="116.06117605794013">
        <ele>980.007080078125</ele>
        <time>2026-10-06T03:34:06Z</time>
      </trkpt>
      <trkpt lat="43.9465056217668" lon="116.06133180102006">
        <ele>983.892578125</ele>
        <time>2026-10-06T03:34:42Z</time>
      </trkpt>
      <trkpt lat="43.94655760501034" lon="116.06136774430348">
        <ele>983.599609375</ele>
        <time>2026-10-06T03:34:48Z</time>
      </trkpt>
      <trkpt lat="43.94660067842172" lon="116.06133278503096">
        <ele>981.031005859375</ele>
        <time>2026-10-06T03:35:04Z</time>
      </trkpt>
      <trkpt lat="43.94670768717211" lon="116.06137471173341">
        <ele>979.833740234375</ele>
        <time>2026-10-06T03:35:18Z</time>
      </trkpt>
      <trkpt lat="43.94675573398661" lon="116.06136172191285">
        <ele>978.9705810546875</ele>
        <time>2026-10-06T03:35:27Z</time>
      </trkpt>
      <trkpt lat="43.94678583589234" lon="116.06129980124287">
        <ele>978.369140625</ele>
        <time>2026-10-06T03:35:42Z</time>
      </trkpt>
      <trkpt lat="43.946836784793895" lon="116.06136071078653">
        <ele>978.1583251953125</ele>
        <time>2026-10-06T03:35:45Z</time>
      </trkpt>
      <trkpt lat="43.946767684784014" lon="116.06140366332201">
        <ele>977.24951171875</ele>
        <time>2026-10-06T03:35:51Z</time>
      </trkpt>
      <trkpt lat="43.94678478942313" lon="116.06133375533092">
        <ele>975.6953125</ele>
        <time>2026-10-06T03:36:12Z</time>
      </trkpt>
      <trkpt lat="43.946839817615725" lon="116.06133774144277">
        <ele>977.0107421875</ele>
        <time>2026-10-06T03:36:18Z</time>
      </trkpt>
      <trkpt lat="43.946879890592804" lon="116.06130178405002">
        <ele>979.26953125</ele>
        <time>2026-10-06T03:36:49Z</time>
      </trkpt>
      <trkpt lat="43.94691499165623" lon="116.06124285875053">
        <ele>979.9888916015625</ele>
        <time>2026-10-06T03:37:07Z</time>
      </trkpt>
      <trkpt lat="43.94690208387974" lon="116.06116896149713">
        <ele>978.248046875</ele>
        <time>2026-10-06T03:37:37Z</time>
      </trkpt>
      <trkpt lat="43.94696245654158" lon="116.06092229084717">
        <ele>977.5185546875</ele>
        <time>2026-10-06T03:38:01Z</time>
      </trkpt>
      <trkpt lat="43.94702165402175" lon="116.0608044447781">
        <ele>978.7799072265625</ele>
        <time>2026-10-06T03:38:10Z</time>
      </trkpt>
      <trkpt lat="43.9469797258041" lon="116.06073354972901">
        <ele>981.6419677734375</ele>
        <time>2026-10-06T03:38:16Z</time>
      </trkpt>
      <trkpt lat="43.94703079680627" lon="116.06070458218241">
        <ele>979.9256591796875</ele>
        <time>2026-10-06T03:38:19Z</time>
      </trkpt>
      <trkpt lat="43.94709580213913" lon="116.06072953741706">
        <ele>978.355712890625</ele>
        <time>2026-10-06T03:38:25Z</time>
      </trkpt>
      <trkpt lat="43.94716403229977" lon="116.06059271783558">
        <ele>980.497314453125</ele>
        <time>2026-10-06T03:38:34Z</time>
      </trkpt>
      <trkpt lat="43.947285299789506" lon="116.06045289540482">
        <ele>980.27001953125</ele>
        <time>2026-10-06T03:39:13Z</time>
      </trkpt>
      <trkpt lat="43.94729239561903" lon="116.06038698722206">
        <ele>980.4425048828125</ele>
        <time>2026-10-06T03:39:31Z</time>
      </trkpt>
      <trkpt lat="43.947359596510154" lon="116.06027213937307">
        <ele>980.77978515625</ele>
        <time>2026-10-06T03:40:19Z</time>
      </trkpt>
      <trkpt lat="43.94722396998973" lon="116.05994662508606">
        <ele>982.8076171875</ele>
        <time>2026-10-06T03:40:55Z</time>
      </trkpt>
      <trkpt lat="43.947191034354404" lon="116.05988671638326">
        <ele>981.248291015625</ele>
        <time>2026-10-06T03:41:07Z</time>
      </trkpt>
      <trkpt lat="43.947183133919154" lon="116.0598128242352">
        <ele>980.474365234375</ele>
        <time>2026-10-06T03:41:16Z</time>
      </trkpt>
      <trkpt lat="43.947178224220416" lon="116.05974692036749">
        <ele>979.9884033203125</ele>
        <time>2026-10-06T03:41:49Z</time>
      </trkpt>
      <trkpt lat="43.94712927506884" lon="116.05969001047656">
        <ele>980.5426025390625</ele>
        <time>2026-10-06T03:41:52Z</time>
      </trkpt>
      <trkpt lat="43.94707630656757" lon="116.05964508395351">
        <ele>982.3687744140625</ele>
        <time>2026-10-06T03:42:10Z</time>
      </trkpt>
      <trkpt lat="43.947047378414254" lon="116.05958218005736">
        <ele>984.2412109375</ele>
        <time>2026-10-06T03:42:16Z</time>
      </trkpt>
      <trkpt lat="43.9470517207014" lon="116.0593445277079">
        <ele>982.211181640625</ele>
        <time>2026-10-06T03:42:37Z</time>
      </trkpt>
      <trkpt lat="43.94702879845178" lon="116.05928062546255">
        <ele>983.398193359375</ele>
        <time>2026-10-06T03:42:43Z</time>
      </trkpt>
      <trkpt lat="43.94710299462181" lon="116.05917576914813">
        <ele>979.145263671875</ele>
        <time>2026-10-06T03:42:55Z</time>
      </trkpt>
      <trkpt lat="43.94714325579754" lon="116.05901200648985">
        <ele>979.1962890625</ele>
        <time>2026-10-06T03:43:31Z</time>
      </trkpt>
      <trkpt lat="43.94739966457475" lon="116.05883822711877">
        <ele>977.01220703125</ele>
        <time>2026-10-06T03:44:01Z</time>
      </trkpt>
      <trkpt lat="43.947576855656266" lon="116.05878128543205">
        <ele>976.4384765625</ele>
        <time>2026-10-06T03:44:19Z</time>
      </trkpt>
      <trkpt lat="43.94763295108591" lon="116.05873933998069">
        <ele>978.5849609375</ele>
        <time>2026-10-06T03:44:25Z</time>
      </trkpt>
      <trkpt lat="43.9476859878368" lon="116.0587363363351">
        <ele>980.45751953125</ele>
        <time>2026-10-06T03:44:31Z</time>
      </trkpt>
      <trkpt lat="43.947793262225154" lon="116.05859353573429">
        <ele>982.7598876953125</ele>
        <time>2026-10-06T03:44:52Z</time>
      </trkpt>
      <trkpt lat="43.94780636693055" lon="116.0585276337661">
        <ele>980.322998046875</ele>
        <time>2026-10-06T03:45:07Z</time>
      </trkpt>
      <trkpt lat="43.94805394221584" lon="116.0582400351826">
        <ele>976.925537109375</ele>
        <time>2026-10-06T03:45:49Z</time>
      </trkpt>
      <trkpt lat="43.948222355018935" lon="116.05803133121364">
        <ele>978.997802734375</ele>
        <time>2026-10-06T03:46:13Z</time>
      </trkpt>
      <trkpt lat="43.94827492082402" lon="116.05767487886416">
        <ele>979.70654296875</ele>
        <time>2026-10-06T03:46:43Z</time>
      </trkpt>
      <trkpt lat="43.94831114162983" lon="116.05754308062654">
        <ele>980.86083984375</ele>
        <time>2026-10-06T03:46:55Z</time>
      </trkpt>
      <trkpt lat="43.94831224947761" lon="116.05747219239073">
        <ele>980.248779296875</ele>
        <time>2026-10-06T03:47:01Z</time>
      </trkpt>
      <trkpt lat="43.94829456449501" lon="116.0572575358292">
        <ele>977.3760986328125</ele>
        <time>2026-10-06T03:48:01Z</time>
      </trkpt>
      <trkpt lat="43.948321927297876" lon="116.05703089422178">
        <ele>979.62255859375</ele>
        <time>2026-10-06T03:48:22Z</time>
      </trkpt>
      <trkpt lat="43.94836506999552" lon="116.0569550096415">
        <ele>979.3157958984375</ele>
        <time>2026-10-06T03:48:31Z</time>
      </trkpt>
      <trkpt lat="43.948381307181606" lon="116.05680724578015">
        <ele>979.8505859375</ele>
        <time>2026-10-06T03:48:46Z</time>
      </trkpt>
      <trkpt lat="43.94848241202345" lon="116.05677927551272">
        <ele>981.64501953125</ele>
        <time>2026-10-06T03:48:58Z</time>
      </trkpt>
      <trkpt lat="43.94859037180378" lon="116.05684814738024">
        <ele>977.92236328125</ele>
        <time>2026-10-06T03:49:10Z</time>
      </trkpt>
      <trkpt lat="43.94875651786543" lon="116.05681916865613">
        <ele>978.42236328125</ele>
        <time>2026-10-06T03:49:28Z</time>
      </trkpt>
      <trkpt lat="43.948795618708296" lon="116.0567692435093">
        <ele>977.95361328125</ele>
        <time>2026-10-06T03:49:34Z</time>
      </trkpt>
      <trkpt lat="43.948846649876856" lon="116.0567692356578">
        <ele>978.753662109375</ele>
        <time>2026-10-06T03:49:40Z</time>
      </trkpt>
      <trkpt lat="43.9488946160579" lon="116.05681016195453">
        <ele>979.3477783203125</ele>
        <time>2026-10-06T03:49:46Z</time>
      </trkpt>
      <trkpt lat="43.94889761019439" lon="116.0568151534122">
        <ele>977.3050537109375</ele>
        <time>2026-10-06T03:50:31Z</time>
      </trkpt>
    </trkseg>
  </trk>
</gpx>