<?xml version="1.0" encoding="UTF-8"?>
<gpx xmlns="http://www.topografix.com/GPX/1/1" xmlns:gpxtpx="http://www.garmin.com/xmlschemas/TrackPointExtension/v1" xmlns:xsi="http://www.w3.org/2001/XMLSchema-instance" xsi:schemaLocation="http://www.topografix.com/GPX/1/1 http://www.topografix.com/GPX/1/1/gpx.xsd" version="1.1" creator="gpx.py -- https://github.com/tkrajina/gpxpy">
  <trk>
    <name>gpx from keep</name>
    <type>Walk</type>
    <trkseg>
      <trkpt lat="40.85556216514148" lon="111.74686802353445">
        <ele>1062.074951171875</ele>
        <time>2026-09-18T23:46:58Z</time>
      </trkpt>
      <trkpt lat="40.855740015071405" lon="111.74682799347703">
        <ele>1064.4166259765625</ele>
        <time>2026-09-18T23:47:10Z</time>
      </trkpt>
      <trkpt lat="40.85599379217844" lon="111.74669393986281">
        <ele>1065.769775390625</ele>
        <time>2026-09-18T23:47:28Z</time>
      </trkpt>
      <trkpt lat="40.85625356829795" lon="111.74658989034886">
        <ele>1068.7735595703125</ele>
        <time>2026-09-18T23:47:46Z</time>
      </trkpt>
      <trkpt lat="40.85655730717573" lon="111.74646983336245">
        <ele>1068.017333984375</ele>
        <time>2026-09-18T23:48:07Z</time>
      </trkpt>
      <trkpt lat="40.85676512759459" lon="111.74637579333033">
        <ele>1065.7852783203125</ele>
        <time>2026-09-18T23:48:22Z</time>
      </trkpt>
      <trkpt lat="40.85690001389398" lon="111.74634177084596">
        <ele>1064.3499755859375</ele>
        <time>2026-09-18T23:48:31Z</time>
      </trkpt>
      <trkpt lat="40.857176775293055" lon="111.746215718361">
        <ele>1065.227294921875</ele>
        <time>2026-09-18T23:48:52Z</time>
      </trkpt>
      <trkpt lat="40.85750249640195" lon="111.74608065906261">
        <ele>1065.4287109375</ele>
        <time>2026-09-18T23:49:16Z</time>
      </trkpt>
      <trkpt lat="40.85778625264919" lon="111.74594760660403">
        <ele>1064.7020263671875</ele>
        <time>2026-09-18T23:49:37Z</time>
      </trkpt>
      <trkpt lat="40.858064016607514" lon="111.74584155842938">
        <ele>1062.4205322265625</ele>
        <time>2026-09-18T23:49:59Z</time>
      </trkpt>
      <trkpt lat="40.85838174557766" lon="111.74570050227449">
        <ele>1065.619384765625</ele>
        <time>2026-09-18T23:50:23Z</time>
      </trkpt>
      <trkpt lat="40.858680488420106" lon="111.74552544699108">
        <ele>1065.92626953125</ele>
        <time>2026-09-18T23:50:47Z</time>
      </trkpt>
      <trkpt lat="40.85899022552915" lon="111.74538439420795">
        <ele>1064.6358642578125</ele>
        <time>2026-09-18T23:51:11Z</time>
      </trkpt>
      <trkpt lat="40.859306957678584" lon="111.7452443415589">
        <ele>1065.49755859375</ele>
        <time>2026-09-18T23:51:35Z</time>
      </trkpt>
      <trkpt lat="40.85945882938782" lon="111.74517531655563">
        <ele>1065.624267578125</ele>
        <time>2026-09-18T23:51:47Z</time>
      </trkpt>
      <trkpt lat="40.859508784083914" lon="111.74509430495918">
        <ele>1064.3031005859375</ele>
        <time>2026-09-18T23:51:53Z</time>
      </trkpt>
      <trkpt lat="40.85950977749804" lon="111.74498029863047">
        <ele>1064.5108642578125</ele>
        <time>2026-09-18T23:51:59Z</time>
      </trkpt>
      <trkpt lat="40.859482794577836" lon="111.74487229704607">
        <ele>1066.153564453125</ele>
        <time>2026-09-18T23:52:05Z</time>
      </trkpt>
      <trkpt lat="40.85934389420982" lon="111.74449330223511">
        <ele>1066.287353515625</ele>
        <time>2026-09-18T23:52:26Z</time>
      </trkpt>
      <trkpt lat="40.859238972293014" lon="111.74416431059446">
        <ele>1066.303955078125</ele>
        <time>2026-09-18T23:52:44Z</time>
      </trkpt>
      <trkpt lat="40.85911806724468" lon="111.74373232772389">
        <ele>1063.4014892578125</ele>
        <time>2026-09-18T23:53:08Z</time>
      </trkpt>
      <trkpt lat="40.85903013970575" lon="111.74354034306259">
        <ele>1062.8924560546875</ele>
        <time>2026-09-18T23:53:20Z</time>
      </trkpt>
      <trkpt lat="40.85892822930474" lon="111.74310937141786">
        <ele>1064.598388671875</ele>
        <time>2026-09-18T23:53:44Z</time>
      </trkpt>
      <trkpt lat="40.858849294050685" lon="111.74310338241605">
        <ele>1063.354736328125</ele>
        <time>2026-09-18T23:53:50Z</time>
      </trkpt>
      <trkpt lat="40.858642461155256" lon="111.7432084060835">
        <ele>1067.4515380859375</ele>
        <time>2026-09-18T23:54:05Z</time>
      </trkpt>
      <trkpt lat="40.85843962576816" lon="111.74328843064609">
        <ele>1071.865478515625</ele>
        <time>2026-09-18T23:54:20Z</time>
      </trkpt>
      <trkpt lat="40.85835869196425" lon="111.74329044157548">
        <ele>1073.054931640625</ele>
        <time>2026-09-18T23:54:26Z</time>
      </trkpt>
      <trkpt lat="40.85827575932853" lon="111.7433234517065">
        <ele>1073.828369140625</ele>
        <time>2026-09-18T23:54:32Z</time>
      </trkpt>
      <trkpt lat="40.858084913448685" lon="111.74351047223738">
        <ele>1070.4180908203125</ele>
        <time>2026-09-18T23:54:50Z</time>
      </trkpt>
      <trkpt lat="40.857790153888374" lon="111.74368550886635">
        <ele>1069.20947265625</ele>
        <time>2026-09-18T23:55:14Z</time>
      </trkpt>
      <trkpt lat="40.85748040764276" lon="111.74384954917609">
        <ele>1065.44140625</ele>
        <time>2026-09-18T23:55:38Z</time>
      </trkpt>
      <trkpt lat="40.85719264424657" lon="111.7440005878615">
        <ele>1064.4449462890625</ele>
        <time>2026-09-18T23:55:59Z</time>
      </trkpt>
      <trkpt lat="40.85688889514766" lon="111.74417463010718">
        <ele>1065.4747314453125</ele>
        <time>2026-09-18T23:56:23Z</time>
      </trkpt>
      <trkpt lat="40.85658115020104" lon="111.74433967428251">
        <ele>1063.880859375</ele>
        <time>2026-09-18T23:56:47Z</time>
      </trkpt>
      <trkpt lat="40.856269409599264" lon="111.74450772048009">
        <ele>1064.162109375</ele>
        <time>2026-09-18T23:57:11Z</time>
      </trkpt>
      <trkpt lat="40.85599763620121" lon="111.74464376157778">
        <ele>1065.542236328125</ele>
        <time>2026-09-18T23:57:32Z</time>
      </trkpt>
      <trkpt lat="40.85569089294832" lon="111.74480180929382">
        <ele>1065.5933837890625</ele>
        <time>2026-09-18T23:57:56Z</time>
      </trkpt>
      <trkpt lat="40.85545209557257" lon="111.7449698495633">
        <ele>1067.0540771484375</ele>
        <time>2026-09-18T23:58:14Z</time>
      </trkpt>
      <trkpt lat="40.855333195548944" lon="111.745027868757">
        <ele>1067.2554931640625</ele>
        <time>2026-09-18T23:58:23Z</time>
      </trkpt>
      <trkpt lat="40.855011465843326" lon="111.7451699206398">
        <ele>1069.1964111328125</ele>
        <time>2026-09-18T23:58:47Z</time>
      </trkpt>
      <trkpt lat="40.854926536717734" lon="111.74519693385018">
        <ele>1069.46630859375</ele>
        <time>2026-09-18T23:58:53Z</time>
      </trkpt>
      <trkpt lat="40.85462079706181" lon="111.74537498733682">
        <ele>1069.5108642578125</ele>
        <time>2026-09-18T23:59:17Z</time>
      </trkpt>
      <trkpt lat="40.85434203438237" lon="111.74552203630404">
        <ele>1069.989013671875</ele>
        <time>2026-09-18T23:59:38Z</time>
      </trkpt>
      <trkpt lat="40.85426909805955" lon="111.74558105097651">
        <ele>1067.890625</ele>
        <time>2026-09-18T23:59:44Z</time>
      </trkpt>
      <trkpt lat="40.85422414087536" lon="111.74566506417233">
        <ele>1065.165283203125</ele>
        <time>2026-09-18T23:59:50Z</time>
      </trkpt>
      <trkpt lat="40.85425912624322" lon="111.74584407572674">
        <ele>1065.0089111328125</ele>
        <time>2026-09-18T23:59:59Z</time>
      </trkpt>
      <trkpt lat="40.854389051674396" lon="111.74620209561938">
        <ele>1061.8704833984375</ele>
        <time>2026-09-19T00:00:20Z</time>
      </trkpt>
      <trkpt lat="40.8544929836823" lon="111.74637410187347">
        <ele>1060.878173828125</ele>
        <time>2026-09-19T00:00:32Z</time>
      </trkpt>
      <trkpt lat="40.854545963185544" lon="111.74659012241317">
        <ele>1059.775634765625</ele>
        <time>2026-09-19T00:00:44Z</time>
      </trkpt>
      <trkpt lat="40.85457296601611" lon="111.74680914930977">
        <ele>1058.3175048828125</ele>
        <time>2026-09-19T00:00:56Z</time>
      </trkpt>
      <trkpt lat="40.854640921160424" lon="111.7468981531992">
        <ele>1060.7464599609375</ele>
        <time>2026-09-19T00:01:02Z</time>
      </trkpt>
      <trkpt lat="40.85469188197989" lon="111.74691814927897">
        <ele>1062.166748046875</ele>
        <time>2026-09-19T00:01:05Z</time>
      </trkpt>
      <trkpt lat="40.854739841845095" lon="111.74691014155691">
        <ele>1063.212158203125</ele>
        <time>2026-09-19T00:01:08Z</time>
      </trkpt>
      <trkpt lat="40.85501259991003" lon="111.74674808080424">
        <ele>1062.6241455078125</ele>
        <time>2026-09-19T00:01:29Z</time>
      </trkpt>
      <trkpt lat="40.85514249474787" lon="111.74675606428984">
        <ele>1062.189453125</ele>
        <time>2026-09-19T00:01:38Z</time>
      </trkpt>
      <trkpt lat="40.85518547093168" lon="111.74685207236246">
        <ele>1063.5814208984375</ele>
        <time>2026-09-19T00:01:44Z</time>
      </trkpt>
      <trkpt lat="40.85520846415424" lon="111.7469510840801">
        <ele>1062.437744140625</ele>
        <time>2026-09-19T00:01:50Z</time>
      </trkpt>
      <trkpt lat="40.85525143889703" lon="111.74703009044401">
        <ele>1062.4041748046875</ele>
        <time>2026-09-19T00:01:56Z</time>
      </trkpt>
      <trkpt lat="40.85545725737653" lon="111.7469220458694">
        <ele>1063.1624755859375</ele>
        <time>2026-09-19T00:02:14Z</time>
      </trkpt>
      <trkpt lat="40.855474235655905" lon="111.74685703385697">
        <ele>1062.96337890625</ele>
        <time>2026-09-19T00:02:20Z</time>
      </trkpt>
    </trkseg>
  </trk>
</gpx>