<?xml version="1.0" encoding="UTF-8"?>
<gpx xmlns="http://www.topografix.com/GPX/1/1" xmlns:gpxtpx="http://www.garmin.com/xmlschemas/TrackPointExtension/v1" xmlns:xsi="http://www.w3.org/2001/XMLSchema-instance" xsi:schemaLocation="http://www.topografix.com/GPX/1/1 http://www.topografix.com/GPX/1/1/gpx.xsd" version="1.1" creator="gpx.py -- https://github.com/tkrajina/gpxpy">
  <trk>
    <name>gpx from keep</name>
    <type>Walk</type>
    <trkseg>
      <trkpt lat="40.89604458918921" lon="111.72052824918048">
        <ele>1104.005126953125</ele>
        <time>2026-07-31T01:36:09Z</time>
      </trkpt>
      <trkpt lat="40.895718773167104" lon="111.7206311732209">
        <ele>1104.4752197265625</ele>
        <time>2026-07-31T01:36:48Z</time>
      </trkpt>
      <trkpt lat="40.89565580190719" lon="111.72065914917773">
        <ele>1103.421630859375</ele>
        <time>2026-07-31T01:36:54Z</time>
      </trkpt>
      <trkpt lat="40.89570477804585" lon="111.72063916580449">
        <ele>1103.2708740234375</ele>
        <time>2026-07-31T01:37:09Z</time>
      </trkpt>
      <trkpt lat="40.89565080183885" lon="111.72066414403939">
        <ele>1102.9564208984375</ele>
        <time>2026-07-31T01:37:21Z</time>
      </trkpt>
      <trkpt lat="40.895368028121105" lon="111.72067516967759">
        <ele>1102.2276611328125</ele>
        <time>2026-07-31T01:37:45Z</time>
      </trkpt>
      <trkpt lat="40.895185190598916" lon="111.72066320848668">
        <ele>1103.6605224609375</ele>
        <time>2026-07-31T01:38:03Z</time>
      </trkpt>
      <trkpt lat="40.89500529815406" lon="111.72071317481947">
        <ele>1103.4337158203125</ele>
        <time>2026-07-31T01:38:18Z</time>
      </trkpt>
      <trkpt lat="40.89494736839309" lon="111.7206872128992">
        <ele>1099.915771484375</ele>
        <time>2026-07-31T01:38:51Z</time>
      </trkpt>
      <trkpt lat="40.89476049445836" lon="111.72072219764284">
        <ele>1100.6951904296875</ele>
        <time>2026-07-31T01:39:15Z</time>
      </trkpt>
      <trkpt lat="40.894543567275875" lon="111.72085007893233">
        <ele>1101.7177734375</ele>
        <time>2026-07-31T01:39:54Z</time>
      </trkpt>
      <trkpt lat="40.89442557163237" lon="111.72096196592783">
        <ele>1101.6414794921875</ele>
        <time>2026-07-31T01:40:36Z</time>
      </trkpt>
      <trkpt lat="40.8943275914155" lon="111.72103589430678">
        <ele>1099.704345703125</ele>
        <time>2026-07-31T01:42:09Z</time>
      </trkpt>
      <trkpt lat="40.89426256482664" lon="111.72113279219523">
        <ele>1099.286376953125</ele>
        <time>2026-07-31T01:42:36Z</time>
      </trkpt>
      <trkpt lat="40.89431447927376" lon="111.72118372698137">
        <ele>1096.50048828125</ele>
        <time>2026-07-31T01:42:45Z</time>
      </trkpt>
      <trkpt lat="40.89425951841193" lon="111.72119172533982">
        <ele>1098.515380859375</ele>
        <time>2026-07-31T01:43:00Z</time>
      </trkpt>
      <trkpt lat="40.89400767102834" lon="111.72126068110626">
        <ele>1098.819580078125</ele>
        <time>2026-07-31T01:43:24Z</time>
      </trkpt>
      <trkpt lat="40.89394075734025" lon="111.72122373224812">
        <ele>1100.2255859375</ele>
        <time>2026-07-31T01:44:06Z</time>
      </trkpt>
      <trkpt lat="40.89393490423142" lon="111.72105292820214">
        <ele>1098.97412109375</ele>
        <time>2026-07-31T01:44:18Z</time>
      </trkpt>
      <trkpt lat="40.893914975072" lon="111.72098800545264">
        <ele>1101.523681640625</ele>
        <time>2026-07-31T01:44:24Z</time>
      </trkpt>
      <trkpt lat="40.89390304610089" lon="111.72091509102559">
        <ele>1099.82470703125</ele>
        <time>2026-07-31T01:44:48Z</time>
      </trkpt>
      <trkpt lat="40.89387492585317" lon="111.72108689744161">
        <ele>1098.3140869140625</ele>
        <time>2026-07-31T01:45:12Z</time>
      </trkpt>
      <trkpt lat="40.89388798417859" lon="111.72100399075393">
        <ele>1097.7706298828125</ele>
        <time>2026-07-31T01:45:33Z</time>
      </trkpt>
      <trkpt lat="40.89389689341879" lon="111.72110387501998">
        <ele>1096.20751953125</ele>
        <time>2026-07-31T01:46:27Z</time>
      </trkpt>
      <trkpt lat="40.89395182523767" lon="111.7211308367129">
        <ele>1093.9434814453125</ele>
        <time>2026-07-31T01:46:30Z</time>
      </trkpt>
      <trkpt lat="40.894009785286855" lon="111.72112084025389">
        <ele>1087.46826171875</ele>
        <time>2026-07-31T01:46:33Z</time>
      </trkpt>
      <trkpt lat="40.893791166092065" lon="111.72088314311037">
        <ele>1098.2149658203125</ele>
        <time>2026-07-31T01:46:39Z</time>
      </trkpt>
      <trkpt lat="40.89374231616079" lon="111.7207533000625">
        <ele>1098.8380126953125</ele>
        <time>2026-07-31T01:46:51Z</time>
      </trkpt>
      <trkpt lat="40.89373444287335" lon="111.72061146622121">
        <ele>1097.1600341796875</ele>
        <time>2026-07-31T01:47:12Z</time>
      </trkpt>
      <trkpt lat="40.89360380174803" lon="111.72031882758296">
        <ele>1093.5294189453125</ele>
        <time>2026-07-31T01:47:45Z</time>
      </trkpt>
      <trkpt lat="40.89356188822038" lon="111.7202589041344">
        <ele>1092.6397705078125</ele>
        <time>2026-07-31T01:47:51Z</time>
      </trkpt>
      <trkpt lat="40.893522955947596" lon="111.72021795793918">
        <ele>1094.131103515625</ele>
        <time>2026-07-31T01:48:12Z</time>
      </trkpt>
      <trkpt lat="40.89349304041576" lon="111.7201490438262">
        <ele>1093.93212890625</ele>
        <time>2026-07-31T01:48:21Z</time>
      </trkpt>
      <trkpt lat="40.893490097391876" lon="111.72008611912571">
        <ele>1094.0147705078125</ele>
        <time>2026-07-31T01:48:30Z</time>
      </trkpt>
      <trkpt lat="40.8935310286817" lon="111.7201260659868">
        <ele>1090.6329345703125</ele>
        <time>2026-07-31T01:48:57Z</time>
      </trkpt>
      <trkpt lat="40.89348407642254" lon="111.72011608425451">
        <ele>1091.4786376953125</ele>
        <time>2026-07-31T01:49:09Z</time>
      </trkpt>
      <trkpt lat="40.89343810085146" lon="111.72013207148498">
        <ele>1091.6939697265625</ele>
        <time>2026-07-31T01:49:15Z</time>
      </trkpt>
      <trkpt lat="40.893388124297154" lon="111.7201530533343">
        <ele>1093.8084716796875</ele>
        <time>2026-07-31T01:49:45Z</time>
      </trkpt>
      <trkpt lat="40.89334015299743" lon="111.72016604442315">
        <ele>1094.826904296875</ele>
        <time>2026-07-31T01:50:03Z</time>
      </trkpt>
      <trkpt lat="40.89330214407402" lon="111.72021299386797">
        <ele>1094.481201171875</ele>
        <time>2026-07-31T01:50:12Z</time>
      </trkpt>
      <trkpt lat="40.89326121438839" lon="111.72017104921778">
        <ele>1094.24560546875</ele>
        <time>2026-07-31T01:50:27Z</time>
      </trkpt>
      <trkpt lat="40.89324028023294" lon="111.7201151185735">
        <ele>1094.248291015625</ele>
        <time>2026-07-31T01:50:36Z</time>
      </trkpt>
      <trkpt lat="40.893000607333555" lon="111.7199683264249">
        <ele>1095.607666015625</ele>
        <time>2026-07-31T01:51:12Z</time>
      </trkpt>
      <trkpt lat="40.89301268014384" lon="111.71987343859425">
        <ele>1093.858642578125</ele>
        <time>2026-07-31T01:51:24Z</time>
      </trkpt>
      <trkpt lat="40.8929267132795" lon="111.71991739751206">
        <ele>1094.5584716796875</ele>
        <time>2026-07-31T01:51:48Z</time>
      </trkpt>
      <trkpt lat="40.892867737951875" lon="111.71994537199568">
        <ele>1094.7288818359375</ele>
        <time>2026-07-31T01:52:30Z</time>
      </trkpt>
      <trkpt lat="40.89282275622661" lon="111.71996735178831">
        <ele>1095.709716796875</ele>
        <time>2026-07-31T01:53:15Z</time>
      </trkpt>
      <trkpt lat="40.89289155664315" lon="111.72013114694384">
        <ele>1093.472900390625</ele>
        <time>2026-07-31T01:54:45Z</time>
      </trkpt>
      <trkpt lat="40.89293248455105" lon="111.72017508914425">
        <ele>1094.3785400390625</ele>
        <time>2026-07-31T01:54:51Z</time>
      </trkpt>
      <trkpt lat="40.892970409851834" lon="111.72022502473828">
        <ele>1096.1573486328125</ele>
        <time>2026-07-31T01:55:09Z</time>
      </trkpt>
      <trkpt lat="40.893155977105536" lon="111.72054961721095">
        <ele>1093.4625244140625</ele>
        <time>2026-07-31T01:55:39Z</time>
      </trkpt>
      <trkpt lat="40.89323283077408" lon="111.72064649361371">
        <ele>1094.4322509765625</ele>
        <time>2026-07-31T01:56:00Z</time>
      </trkpt>
      <trkpt lat="40.893314676387305" lon="111.72074836397802">
        <ele>1095.12646484375</ele>
        <time>2026-07-31T01:56:36Z</time>
      </trkpt>
      <trkpt lat="40.89332960581089" lon="111.72081728205377">
        <ele>1096.2384033203125</ele>
        <time>2026-07-31T01:56:42Z</time>
      </trkpt>
      <trkpt lat="40.89339452821701" lon="111.72084524087252">
        <ele>1093.85693359375</ele>
        <time>2026-07-31T01:57:03Z</time>
      </trkpt>
      <trkpt lat="40.89350631530392" lon="111.72098806099396">
        <ele>1094.6168212890625</ele>
        <time>2026-07-31T01:57:18Z</time>
      </trkpt>
      <trkpt lat="40.89355626035835" lon="111.72100403583894">
        <ele>1095.3731689453125</ele>
        <time>2026-07-31T01:57:24Z</time>
      </trkpt>
      <trkpt lat="40.89357519205222" lon="111.72106696106226">
        <ele>1097.10498046875</ele>
        <time>2026-07-31T01:57:33Z</time>
      </trkpt>
      <trkpt lat="40.89372500993041" lon="111.72113586183282">
        <ele>1096.9013671875</ele>
        <time>2026-07-31T01:57:54Z</time>
      </trkpt>
      <trkpt lat="40.89376793684871" lon="111.7211808046832">
        <ele>1097.2607421875</ele>
        <time>2026-07-31T01:58:10Z</time>
      </trkpt>
      <trkpt lat="40.8938138969251" lon="111.72118279615805">
        <ele>1097.6610107421875</ele>
        <time>2026-07-31T01:58:18Z</time>
      </trkpt>
      <trkpt lat="40.89399570910251" lon="111.72122672136763">
        <ele>1098.0074462890625</ele>
        <time>2026-07-31T01:58:48Z</time>
      </trkpt>
      <trkpt lat="40.8939706886054" lon="111.72127666797014">
        <ele>1100.896484375</ele>
        <time>2026-07-31T01:58:57Z</time>
      </trkpt>
      <trkpt lat="40.89391276988789" lon="111.72123672127147">
        <ele>1100.33154296875</ele>
        <time>2026-07-31T01:59:30Z</time>
      </trkpt>
      <trkpt lat="40.893973696012736" lon="111.72126468118226">
        <ele>1099.952880859375</ele>
        <time>2026-07-31T01:59:48Z</time>
      </trkpt>
      <trkpt lat="40.89401670238234" lon="111.72121373330101">
        <ele>1099.839599609375</ele>
        <time>2026-07-31T01:59:54Z</time>
      </trkpt>
      <trkpt lat="40.89401276038205" lon="111.72114780902993">
        <ele>1099.603759765625</ele>
        <time>2026-07-31T02:00:00Z</time>
      </trkpt>
      <trkpt lat="40.894052699748535" lon="111.72118076597945">
        <ele>1097.720947265625</ele>
        <time>2026-07-31T02:00:06Z</time>
      </trkpt>
      <trkpt lat="40.89416058092132" lon="111.72121571147">
        <ele>1098.7724609375</ele>
        <time>2026-07-31T02:00:27Z</time>
      </trkpt>
      <trkpt lat="40.894428539066496" lon="111.72099792417127">
        <ele>1099.460205078125</ele>
        <time>2026-07-31T02:00:54Z</time>
      </trkpt>
      <trkpt lat="40.894536510217996" lon="111.72092499341467">
        <ele>1099.1475830078125</ele>
        <time>2026-07-31T02:01:06Z</time>
      </trkpt>
      <trkpt lat="40.894651523639155" lon="111.72079512784289">
        <ele>1100.532958984375</ele>
        <time>2026-07-31T02:01:24Z</time>
      </trkpt>
      <trkpt lat="40.89467554747671" lon="111.72074318482272">
        <ele>1103.5208740234375</ele>
        <time>2026-07-31T02:01:30Z</time>
      </trkpt>
      <trkpt lat="40.89490341346774" lon="111.72067723049942">
        <ele>1103.2120361328125</ele>
        <time>2026-07-31T02:01:54Z</time>
      </trkpt>
      <trkpt lat="40.89510122754272" lon="111.72070217455706">
        <ele>1103.6959228515625</ele>
        <time>2026-07-31T02:02:12Z</time>
      </trkpt>
      <trkpt lat="40.895315068010575" lon="111.7206801710615">
        <ele>1103.5244140625</ele>
        <time>2026-07-31T02:02:39Z</time>
      </trkpt>
      <trkpt lat="40.895473906081754" lon="111.72071510880617">
        <ele>1103.2083740234375</ele>
        <time>2026-07-31T02:03:09Z</time>
      </trkpt>
      <trkpt lat="40.89576170604407" lon="111.72066812431207">
        <ele>1100.76025390625</ele>
        <time>2026-07-31T02:03:39Z</time>
      </trkpt>
      <trkpt lat="40.896037557618044" lon="111.72057219870946">
        <ele>1102.4847412109375</ele>
        <time>2026-07-31T02:04:09Z</time>
      </trkpt>
      <trkpt lat="40.89628248992769" lon="111.72041235285748">
        <ele>1103.4315185546875</ele>
        <time>2026-07-31T02:04:48Z</time>
      </trkpt>
      <trkpt lat="40.89657037782112" lon="111.72026348935225">
        <ele>1102.8873291015625</ele>
        <time>2026-07-31T02:05:24Z</time>
      </trkpt>
      <trkpt lat="40.89676428427896" lon="111.72018455653176">
        <ele>1102.99072265625</ele>
        <time>2026-07-31T02:05:48Z</time>
      </trkpt>
      <trkpt lat="40.8968572698718" lon="111.72011163058175">
        <ele>1104.0528564453125</ele>
        <time>2026-07-31T02:06:01Z</time>
      </trkpt>
      <trkpt lat="40.89704617914994" lon="111.72003469661242">
        <ele>1103.36767578125</ele>
        <time>2026-07-31T02:06:25Z</time>
      </trkpt>
      <trkpt lat="40.89719209052603" lon="111.71999672213995">
        <ele>1104.13671875</ele>
        <time>2026-07-31T02:06:43Z</time>
      </trkpt>
      <trkpt lat="40.89720707542432" lon="111.7199997165199">
        <ele>1103.404296875</ele>
        <time>2026-07-31T02:08:16Z</time>
      </trkpt>
    </trkseg>
  </trk>
</gpx>