<?xml version="1.0" encoding="UTF-8"?>
<gpx xmlns="http://www.topografix.com/GPX/1/1" xmlns:gpxtpx="http://www.garmin.com/xmlschemas/TrackPointExtension/v1" xmlns:xsi="http://www.w3.org/2001/XMLSchema-instance" xsi:schemaLocation="http://www.topografix.com/GPX/1/1 http://www.topografix.com/GPX/1/1/gpx.xsd" version="1.1" creator="gpx.py -- https://github.com/tkrajina/gpxpy">
  <trk>
    <name>gpx from keep</name>
    <type>Walk</type>
    <trkseg>
      <trkpt lat="40.83182269956191" lon="111.75253590523712">
        <ele>1046.92626953125</ele>
        <time>2026-07-29T12:39:28Z</time>
      </trkpt>
      <trkpt lat="40.831781716264686" lon="111.75248688947718">
        <ele>1047.67724609375</ele>
        <time>2026-07-29T12:39:34Z</time>
      </trkpt>
      <trkpt lat="40.83179168811391" lon="111.75242586174835">
        <ele>1046.7799072265625</ele>
        <time>2026-07-29T12:39:52Z</time>
      </trkpt>
      <trkpt lat="40.831638746451716" lon="111.75222679777005">
        <ele>1046.606689453125</ele>
        <time>2026-07-29T12:40:22Z</time>
      </trkpt>
      <trkpt lat="40.83155479189672" lon="111.75215778025124">
        <ele>1047.495849609375</ele>
        <time>2026-07-29T12:40:34Z</time>
      </trkpt>
      <trkpt lat="40.83145882199868" lon="111.7520087316603">
        <ele>1047.6827392578125</ele>
        <time>2026-07-29T12:40:52Z</time>
      </trkpt>
      <trkpt lat="40.831397863520415" lon="111.75198473011446">
        <ele>1048.767578125</ele>
        <time>2026-07-29T12:41:01Z</time>
      </trkpt>
      <trkpt lat="40.83130288092987" lon="111.75179366589465">
        <ele>1047.4808349609375</ele>
        <time>2026-07-29T12:41:22Z</time>
      </trkpt>
      <trkpt lat="40.83125392183059" lon="111.75179867453521">
        <ele>1048.5517578125</ele>
        <time>2026-07-29T12:41:31Z</time>
      </trkpt>
      <trkpt lat="40.8311620147488" lon="111.75186071185463">
        <ele>1051.23046875</ele>
        <time>2026-07-29T12:42:04Z</time>
      </trkpt>
      <trkpt lat="40.83099415866374" lon="111.75188974632576">
        <ele>1049.6585693359375</ele>
        <time>2026-07-29T12:42:34Z</time>
      </trkpt>
      <trkpt lat="40.83087129477759" lon="111.75200981181668">
        <ele>1049.66552734375</ele>
        <time>2026-07-29T12:43:07Z</time>
      </trkpt>
      <trkpt lat="40.83084837276836" lon="111.75219789286741">
        <ele>1047.5072021484375</ele>
        <time>2026-07-29T12:43:34Z</time>
      </trkpt>
      <trkpt lat="40.830886382866176" lon="111.75232394094398">
        <ele>1050.0423583984375</ele>
        <time>2026-07-29T12:43:58Z</time>
      </trkpt>
      <trkpt lat="40.83087741063079" lon="111.75238696908032">
        <ele>1052.0657958984375</ele>
        <time>2026-07-29T12:44:07Z</time>
      </trkpt>
      <trkpt lat="40.83062962558888" lon="111.75243502335549">
        <ele>1048.9300537109375</ele>
        <time>2026-07-29T12:44:43Z</time>
      </trkpt>
      <trkpt lat="40.83051070738559" lon="111.7523930214262">
        <ele>1049.024169921875</ele>
        <time>2026-07-29T12:44:55Z</time>
      </trkpt>
      <trkpt lat="40.830465747785006" lon="111.75240603311187">
        <ele>1048.7451171875</ele>
        <time>2026-07-29T12:45:13Z</time>
      </trkpt>
      <trkpt lat="40.830315815305624" lon="111.75224298407089">
        <ele>1046.217041015625</ele>
        <time>2026-07-29T12:45:40Z</time>
      </trkpt>
      <trkpt lat="40.83025887397728" lon="111.75228300870343">
        <ele>1045.0379638671875</ele>
        <time>2026-07-29T12:45:49Z</time>
      </trkpt>
      <trkpt lat="40.83018096650542" lon="111.75237505846357">
        <ele>1044.9866943359375</ele>
        <time>2026-07-29T12:46:04Z</time>
      </trkpt>
      <trkpt lat="40.83012501997601" lon="111.75240107720867">
        <ele>1042.7276611328125</ele>
        <time>2026-07-29T12:46:31Z</time>
      </trkpt>
      <trkpt lat="40.83010106590711" lon="111.75248211542073">
        <ele>1044.3985595703125</ele>
        <time>2026-07-29T12:46:43Z</time>
      </trkpt>
      <trkpt lat="40.830107104390095" lon="111.75261217140346">
        <ele>1046.763427734375</ele>
        <time>2026-07-29T12:46:55Z</time>
      </trkpt>
      <trkpt lat="40.83007120457088" lon="111.75282226983421">
        <ele>1047.6099853515625</ele>
        <time>2026-07-29T12:47:19Z</time>
      </trkpt>
      <trkpt lat="40.83007822238237" lon="111.75289029965336">
        <ele>1047.1654052734375</ele>
        <time>2026-07-29T12:47:25Z</time>
      </trkpt>
      <trkpt lat="40.8302151837074" lon="111.7530943747777">
        <ele>1044.750244140625</ele>
        <time>2026-07-29T12:47:55Z</time>
      </trkpt>
      <trkpt lat="40.83023619880454" lon="111.75318441393577">
        <ele>1044.954345703125</ele>
        <time>2026-07-29T12:48:28Z</time>
      </trkpt>
      <trkpt lat="40.830279177143765" lon="111.75322042502101">
        <ele>1044.0184326171875</ele>
        <time>2026-07-29T12:48:34Z</time>
      </trkpt>
      <trkpt lat="40.83043106081417" lon="111.7532364119474">
        <ele>1044.3094482421875</ele>
        <time>2026-07-29T12:48:52Z</time>
      </trkpt>
      <trkpt lat="40.830547956103224" lon="111.75320638195488">
        <ele>1043.4635009765625</ele>
        <time>2026-07-29T12:49:07Z</time>
      </trkpt>
      <trkpt lat="40.83059988975216" lon="111.75313734258543">
        <ele>1044.7447509765625</ele>
        <time>2026-07-29T12:49:16Z</time>
      </trkpt>
      <trkpt lat="40.830634810550976" lon="111.75299227070632">
        <ele>1045.211669921875</ele>
        <time>2026-07-29T12:49:28Z</time>
      </trkpt>
      <trkpt lat="40.830675764707436" lon="111.75295524818527">
        <ele>1045.9532470703125</ele>
        <time>2026-07-29T12:49:34Z</time>
      </trkpt>
      <trkpt lat="40.830761723958595" lon="111.75303627374258">
        <ele>1042.98681640625</ele>
        <time>2026-07-29T12:49:46Z</time>
      </trkpt>
      <trkpt lat="40.83087264358401" lon="111.7530612702437">
        <ele>1042.472412109375</ele>
        <time>2026-07-29T12:49:58Z</time>
      </trkpt>
      <trkpt lat="40.83097355857089" lon="111.7530502514586">
        <ele>1043.089599609375</ele>
        <time>2026-07-29T12:50:10Z</time>
      </trkpt>
      <trkpt lat="40.83102752046732" lon="111.75306525107479">
        <ele>1041.29443359375</ele>
        <time>2026-07-29T12:50:19Z</time>
      </trkpt>
      <trkpt lat="40.831055480750045" lon="111.75301622465041">
        <ele>1039.8944091796875</ele>
        <time>2026-07-29T12:50:25Z</time>
      </trkpt>
      <trkpt lat="40.83105245037442" lon="111.75292218198871">
        <ele>1040.63720703125</ele>
        <time>2026-07-29T12:50:31Z</time>
      </trkpt>
      <trkpt lat="40.83109537376367" lon="111.7528001209235">
        <ele>1043.7620849609375</ele>
        <time>2026-07-29T12:50:46Z</time>
      </trkpt>
      <trkpt lat="40.831142323011626" lon="111.75276209749869">
        <ele>1045.3179931640625</ele>
        <time>2026-07-29T12:51:31Z</time>
      </trkpt>
      <trkpt lat="40.83120024282259" lon="111.75266304555308">
        <ele>1044.5069580078125</ele>
        <time>2026-07-29T12:51:49Z</time>
      </trkpt>
      <trkpt lat="40.83121420905087" lon="111.75259601410312">
        <ele>1046.5035400390625</ele>
        <time>2026-07-29T12:51:55Z</time>
      </trkpt>
      <trkpt lat="40.831278123325454" lon="111.75249296043548">
        <ele>1046.7371826171875</ele>
        <time>2026-07-29T12:52:07Z</time>
      </trkpt>
      <trkpt lat="40.83132808182189" lon="111.75248895191808">
        <ele>1048.4091796875</ele>
        <time>2026-07-29T12:52:40Z</time>
      </trkpt>
      <trkpt lat="40.83138907244393" lon="111.75260799564552">
        <ele>1044.54931640625</ele>
        <time>2026-07-29T12:52:49Z</time>
      </trkpt>
      <trkpt lat="40.83149490882285" lon="111.75237087841133">
        <ele>1040.2431640625</ele>
        <time>2026-07-29T12:53:10Z</time>
      </trkpt>
      <trkpt lat="40.83149584154701" lon="111.75216479117518">
        <ele>1042.4659423828125</ele>
        <time>2026-07-29T12:53:25Z</time>
      </trkpt>
      <trkpt lat="40.831473786882306" lon="111.75193469944429">
        <ele>1045.155029296875</ele>
        <time>2026-07-29T12:53:55Z</time>
      </trkpt>
      <trkpt lat="40.831454775915454" lon="111.75184966769483">
        <ele>1045.5</ele>
        <time>2026-07-29T12:54:04Z</time>
      </trkpt>
      <trkpt lat="40.83142578269391" lon="111.75179565001051">
        <ele>1046.8487548828125</ele>
        <time>2026-07-29T12:55:19Z</time>
      </trkpt>
      <trkpt lat="40.831419765950436" lon="111.75172462262577">
        <ele>1047.2576904296875</ele>
        <time>2026-07-29T12:55:58Z</time>
      </trkpt>
      <trkpt lat="40.83135477473004" lon="111.75157957464562">
        <ele>1047.447021484375</ele>
        <time>2026-07-29T12:56:10Z</time>
      </trkpt>
      <trkpt lat="40.83128574390658" lon="111.75128347136715">
        <ele>1046.0133056640625</ele>
        <time>2026-07-29T12:56:40Z</time>
      </trkpt>
      <trkpt lat="40.83124875428243" lon="111.75121545113643">
        <ele>1046.75439453125</ele>
        <time>2026-07-29T12:56:47Z</time>
      </trkpt>
      <trkpt lat="40.83120777959034" lon="111.75118844673686">
        <ele>1048.5648193359375</ele>
        <time>2026-07-29T12:56:50Z</time>
      </trkpt>
      <trkpt lat="40.83114279293152" lon="111.75104940486051">
        <ele>1047.9083251953125</ele>
        <time>2026-07-29T12:56:59Z</time>
      </trkpt>
      <trkpt lat="40.83108581969492" lon="111.7509803877915">
        <ele>1047.90283203125</ele>
        <time>2026-07-29T12:57:05Z</time>
      </trkpt>
      <trkpt lat="40.83102385910182" lon="111.75094238264569">
        <ele>1048.39111328125</ele>
        <time>2026-07-29T12:57:11Z</time>
      </trkpt>
      <trkpt lat="40.83090695337272" lon="111.75094339886982">
        <ele>1048.78369140625</ele>
        <time>2026-07-29T12:57:23Z</time>
      </trkpt>
      <trkpt lat="40.83082604983109" lon="111.75105745074515">
        <ele>1047.2742919921875</ele>
        <time>2026-07-29T12:57:47Z</time>
      </trkpt>
      <trkpt lat="40.8308361255671" lon="111.75135355863516">
        <ele>1047.47265625</ele>
        <time>2026-07-29T12:58:08Z</time>
      </trkpt>
      <trkpt lat="40.830945139472355" lon="111.75169767639129">
        <ele>1048.9442138671875</ele>
        <time>2026-07-29T12:58:32Z</time>
      </trkpt>
      <trkpt lat="40.83095718376533" lon="111.75187474529385">
        <ele>1048.267578125</ele>
        <time>2026-07-29T12:58:44Z</time>
      </trkpt>
      <trkpt lat="40.83098019814649" lon="111.75198078517154">
        <ele>1048.0172119140625</ele>
        <time>2026-07-29T12:58:50Z</time>
      </trkpt>
      <trkpt lat="40.83093929486576" lon="111.75218287424241">
        <ele>1046.54150390625</ele>
        <time>2026-07-29T12:59:02Z</time>
      </trkpt>
      <trkpt lat="40.83093539527986" lon="111.7524820021805">
        <ele>1046.73681640625</ele>
        <time>2026-07-29T12:59:20Z</time>
      </trkpt>
      <trkpt lat="40.83094448516502" lon="111.75277112838295">
        <ele>1045.2579345703125</ele>
        <time>2026-07-29T12:59:38Z</time>
      </trkpt>
      <trkpt lat="40.831108456796855" lon="111.75306924194226">
        <ele>1047.691162109375</ele>
        <time>2026-07-29T13:00:02Z</time>
      </trkpt>
      <trkpt lat="40.83116643176592" lon="111.75313026242613">
        <ele>1047.5068359375</ele>
        <time>2026-07-29T13:00:08Z</time>
      </trkpt>
      <trkpt lat="40.831228378046646" lon="111.75311924889175">
        <ele>1047.1007080078125</ele>
        <time>2026-07-29T13:00:14Z</time>
      </trkpt>
      <trkpt lat="40.83130726113059" lon="111.7529671679684">
        <ele>1044.513916015625</ele>
        <time>2026-07-29T13:00:26Z</time>
      </trkpt>
      <trkpt lat="40.83135620367101" lon="111.75291513757112">
        <ele>1044.4212646484375</ele>
        <time>2026-07-29T13:00:32Z</time>
      </trkpt>
      <trkpt lat="40.831496081117415" lon="111.75288610539718">
        <ele>1044.7618408203125</ele>
        <time>2026-07-29T13:00:44Z</time>
      </trkpt>
      <trkpt lat="40.83156803121035" lon="111.75290910608773">
        <ele>1045.570556640625</ele>
        <time>2026-07-29T13:00:50Z</time>
      </trkpt>
      <trkpt lat="40.8316329682406" lon="111.7528780831867">
        <ele>1045.2613525390625</ele>
        <time>2026-07-29T13:00:56Z</time>
      </trkpt>
      <trkpt lat="40.83176375465143" lon="111.75255892328836">
        <ele>1043.684814453125</ele>
        <time>2026-07-29T13:01:20Z</time>
      </trkpt>
      <trkpt lat="40.83163975014771" lon="111.75224080352986">
        <ele>1045.590087890625</ele>
        <time>2026-07-29T13:01:44Z</time>
      </trkpt>
      <trkpt lat="40.831594735958504" lon="111.75208274367371">
        <ele>1046.728759765625</ele>
        <time>2026-07-29T13:01:53Z</time>
      </trkpt>
      <trkpt lat="40.83143176054394" lon="111.75173862653834">
        <ele>1048.581298828125</ele>
        <time>2026-07-29T13:02:17Z</time>
      </trkpt>
      <trkpt lat="40.83132181136859" lon="111.75161359234343">
        <ele>1049.5430908203125</ele>
        <time>2026-07-29T13:02:29Z</time>
      </trkpt>
      <trkpt lat="40.83128881060502" lon="111.75152156117669">
        <ele>1048.6278076171875</ele>
        <time>2026-07-29T13:02:35Z</time>
      </trkpt>
      <trkpt lat="40.83126077488802" lon="111.7513214889696">
        <ele>1047.2398681640625</ele>
        <time>2026-07-29T13:02:47Z</time>
      </trkpt>
      <trkpt lat="40.83116675159406" lon="111.75096937287437">
        <ele>1046.2801513671875</ele>
        <time>2026-07-29T13:03:20Z</time>
      </trkpt>
      <trkpt lat="40.83114774803228" lon="111.75090035093153">
        <ele>1046.9013671875</ele>
        <time>2026-07-29T13:03:26Z</time>
      </trkpt>
      <trkpt lat="40.83109378599642" lon="111.75088035119343">
        <ele>1047.4337158203125</ele>
        <time>2026-07-29T13:03:32Z</time>
      </trkpt>
      <trkpt lat="40.83093392622523" lon="111.75092338810227">
        <ele>1048.884765625</ele>
        <time>2026-07-29T13:03:50Z</time>
      </trkpt>
      <trkpt lat="40.83081704599234" lon="111.75101743754348">
        <ele>1049.2789306640625</ele>
        <time>2026-07-29T13:04:05Z</time>
      </trkpt>
      <trkpt lat="40.83080507699249" lon="111.75109446700615">
        <ele>1047.19677734375</ele>
        <time>2026-07-29T13:04:29Z</time>
      </trkpt>
      <trkpt lat="40.830902110079535" lon="111.75148259868385">
        <ele>1048.1177978515625</ele>
        <time>2026-07-29T13:05:02Z</time>
      </trkpt>
      <trkpt lat="40.830960151348954" lon="111.75177670564058">
        <ele>1049.0928955078125</ele>
        <time>2026-07-29T13:05:20Z</time>
      </trkpt>
      <trkpt lat="40.830934284860305" lon="111.75213885655448">
        <ele>1049.231689453125</ele>
        <time>2026-07-29T13:05:44Z</time>
      </trkpt>
      <trkpt lat="40.830934417321664" lon="111.75254603017115">
        <ele>1048.525634765625</ele>
        <time>2026-07-29T13:06:08Z</time>
      </trkpt>
      <trkpt lat="40.83093548182934" lon="111.7527401157336">
        <ele>1047.7833251953125</ele>
        <time>2026-07-29T13:06:20Z</time>
      </trkpt>
      <trkpt lat="40.830967484491104" lon="111.75282314863816">
        <ele>1047.9813232421875</ele>
        <time>2026-07-29T13:06:26Z</time>
      </trkpt>
      <trkpt lat="40.831080436913176" lon="111.75294819005946">
        <ele>1048.8028564453125</ele>
        <time>2026-07-29T13:06:38Z</time>
      </trkpt>
      <trkpt lat="40.83127131877907" lon="111.7530492105823">
        <ele>1047.510498046875</ele>
        <time>2026-07-29T13:06:56Z</time>
      </trkpt>
      <trkpt lat="40.83134121329874" lon="111.75290813641845">
        <ele>1046.3626708984375</ele>
        <time>2026-07-29T13:07:11Z</time>
      </trkpt>
      <trkpt lat="40.83149108306238" lon="111.75288010335221">
        <ele>1046.2171630859375</ele>
        <time>2026-07-29T13:07:23Z</time>
      </trkpt>
      <trkpt lat="40.83153506016034" lon="111.75291611375056">
        <ele>1046.121337890625</ele>
        <time>2026-07-29T13:07:29Z</time>
      </trkpt>
      <trkpt lat="40.83158899463846" lon="111.75285207737763">
        <ele>1046.697021484375</ele>
        <time>2026-07-29T13:07:44Z</time>
      </trkpt>
      <trkpt lat="40.831727805011695" lon="111.75262295627479">
        <ele>1045.78564453125</ele>
        <time>2026-07-29T13:07:56Z</time>
      </trkpt>
      <trkpt lat="40.8317617422839" lon="111.7525169052287">
        <ele>1044.9451904296875</ele>
        <time>2026-07-29T13:08:02Z</time>
      </trkpt>
      <trkpt lat="40.83177170419116" lon="111.75242586446086">
        <ele>1045.2779541015625</ele>
        <time>2026-07-29T13:08:08Z</time>
      </trkpt>
      <trkpt lat="40.83171173081709" lon="111.75235984427566">
        <ele>1046.087158203125</ele>
        <time>2026-07-29T13:08:14Z</time>
      </trkpt>
      <trkpt lat="40.831701708688236" lon="111.75226680609599">
        <ele>1045.3199462890625</ele>
        <time>2026-07-29T13:08:20Z</time>
      </trkpt>
      <trkpt lat="40.83161673125404" lon="111.75212375768476">
        <ele>1047.25</ele>
        <time>2026-07-29T13:08:32Z</time>
      </trkpt>
      <trkpt lat="40.831475744035956" lon="111.75180064522462">
        <ele>1048.218994140625</ele>
        <time>2026-07-29T13:08:56Z</time>
      </trkpt>
      <trkpt lat="40.83137178824956" lon="111.75167060785991">
        <ele>1049.533935546875</ele>
        <time>2026-07-29T13:09:08Z</time>
      </trkpt>
      <trkpt lat="40.83132879800112" lon="111.75158758127775">
        <ele>1049.2109375</ele>
        <time>2026-07-29T13:09:14Z</time>
      </trkpt>
      <trkpt lat="40.83123376322087" lon="111.75120444910849">
        <ele>1047.857666015625</ele>
        <time>2026-07-29T13:09:38Z</time>
      </trkpt>
      <trkpt lat="40.831163737078164" lon="111.75090735123797">
        <ele>1047.45947265625</ele>
        <time>2026-07-29T13:09:56Z</time>
      </trkpt>
      <trkpt lat="40.83109879311475" lon="111.75092136501426">
        <ele>1048.5465087890625</ele>
        <time>2026-07-29T13:10:02Z</time>
      </trkpt>
      <trkpt lat="40.830975914398195" lon="111.75100341095026">
        <ele>1047.7017822265625</ele>
        <time>2026-07-29T13:10:14Z</time>
      </trkpt>
      <trkpt lat="40.830841037503774" lon="111.75105644834922">
        <ele>1048.6219482421875</ele>
        <time>2026-07-29T13:10:26Z</time>
      </trkpt>
      <trkpt lat="40.830810083319" lon="111.75113147981031">
        <ele>1047.6600341796875</ele>
        <time>2026-07-29T13:10:32Z</time>
      </trkpt>
      <trkpt lat="40.830847134110364" lon="111.75141357982908">
        <ele>1046.6905517578125</ele>
        <time>2026-07-29T13:10:50Z</time>
      </trkpt>
      <trkpt lat="40.83088912228409" lon="111.75148860274655">
        <ele>1046.740966796875</ele>
        <time>2026-07-29T13:10:56Z</time>
      </trkpt>
      <trkpt lat="40.83094715723195" lon="111.75176170143948">
        <ele>1047.4454345703125</ele>
        <time>2026-07-29T13:11:14Z</time>
      </trkpt>
      <trkpt lat="40.83093728181449" lon="111.75213685531511">
        <ele>1045.5802001953125</ele>
        <time>2026-07-29T13:11:50Z</time>
      </trkpt>
      <trkpt lat="40.83092231396031" lon="111.75219988367013">
        <ele>1045.22509765625</ele>
        <time>2026-07-29T13:11:53Z</time>
      </trkpt>
      <trkpt lat="40.83091841787864" lon="111.75250901621214">
        <ele>1046.5848388671875</ele>
        <time>2026-07-29T13:12:11Z</time>
      </trkpt>
      <trkpt lat="40.830956422715694" lon="111.75261505745024">
        <ele>1045.80322265625</ele>
        <time>2026-07-29T13:12:26Z</time>
      </trkpt>
      <trkpt lat="40.831050405128096" lon="111.75278612073605">
        <ele>1045.5677490234375</ele>
        <time>2026-07-29T13:12:35Z</time>
      </trkpt>
      <trkpt lat="40.83107643977905" lon="111.75294719014484">
        <ele>1046.9600830078125</ele>
        <time>2026-07-29T13:12:50Z</time>
      </trkpt>
      <trkpt lat="40.83111243004851" lon="111.75300221047753">
        <ele>1049.093994140625</ele>
        <time>2026-07-29T13:12:56Z</time>
      </trkpt>
      <trkpt lat="40.83115839168788" lon="111.75299820240015">
        <ele>1047.3475341796875</ele>
        <time>2026-07-29T13:13:02Z</time>
      </trkpt>
      <trkpt lat="40.83120534344303" lon="111.75296818225962">
        <ele>1045.889404296875</ele>
        <time>2026-07-29T13:13:08Z</time>
      </trkpt>
      <trkpt lat="40.831268257785084" lon="111.75286712770178">
        <ele>1043.94091796875</ele>
        <time>2026-07-29T13:13:20Z</time>
      </trkpt>
      <trkpt lat="40.83144111565514" lon="111.75285810016418">
        <ele>1045.3426513671875</ele>
        <time>2026-07-29T13:13:32Z</time>
      </trkpt>
      <trkpt lat="40.831510067101135" lon="111.75287809986813">
        <ele>1045.3349609375</ele>
        <time>2026-07-29T13:13:38Z</time>
      </trkpt>
      <trkpt lat="40.83155703762651" lon="111.7529021043947">
        <ele>1046.5159912109375</ele>
        <time>2026-07-29T13:13:56Z</time>
      </trkpt>
      <trkpt lat="40.83164293645865" lon="111.75280905065243">
        <ele>1049.56982421875</ele>
        <time>2026-07-29T13:14:20Z</time>
      </trkpt>
      <trkpt lat="40.831654900865296" lon="111.75273301496163">
        <ele>1051.5439453125</ele>
        <time>2026-07-29T13:14:29Z</time>
      </trkpt>
      <trkpt lat="40.83169684711005" lon="111.75267398302239">
        <ele>1053.181396484375</ele>
        <time>2026-07-29T13:14:32Z</time>
      </trkpt>
      <trkpt lat="40.83171381223706" lon="111.75261095288829">
        <ele>1053.3448486328125</ele>
        <time>2026-07-29T13:14:44Z</time>
      </trkpt>
      <trkpt lat="40.8317087381244" lon="111.75237485110019">
        <ele>1050.1676025390625</ele>
        <time>2026-07-29T13:14:59Z</time>
      </trkpt>
      <trkpt lat="40.83161974730942" lon="111.75218178146442">
        <ele>1049.8575439453125</ele>
        <time>2026-07-29T13:15:26Z</time>
      </trkpt>
      <trkpt lat="40.831518739261874" lon="111.75189767835415">
        <ele>1049.3680419921875</ele>
        <time>2026-07-29T13:15:44Z</time>
      </trkpt>
      <trkpt lat="40.831428763863904" lon="111.75174162813366">
        <ele>1050.00830078125</ele>
        <time>2026-07-29T13:15:56Z</time>
      </trkpt>
      <trkpt lat="40.83137980081951" lon="111.75173363161117">
        <ele>1050.162841796875</ele>
        <time>2026-07-29T13:16:05Z</time>
      </trkpt>
      <trkpt lat="40.83141378928903" lon="111.75178564765096">
        <ele>1049.29150390625</ele>
        <time>2026-07-29T13:16:17Z</time>
      </trkpt>
      <trkpt lat="40.83151375101395" lon="111.75192268915103">
        <ele>1053.48681640625</ele>
        <time>2026-07-29T13:16:50Z</time>
      </trkpt>
      <trkpt lat="40.83149878297368" lon="111.75198671723345">
        <ele>1051.8740234375</ele>
        <time>2026-07-29T13:16:56Z</time>
      </trkpt>
      <trkpt lat="40.83152977245917" lon="111.75203273187898">
        <ele>1048.0782470703125</ele>
        <time>2026-07-29T13:17:11Z</time>
      </trkpt>
      <trkpt lat="40.831495820268536" lon="111.75209776330838">
        <ele>1049.1246337890625</ele>
        <time>2026-07-29T13:17:26Z</time>
      </trkpt>
      <trkpt lat="40.83153477724477" lon="111.75206074272711">
        <ele>1048.2596435546875</ele>
        <time>2026-07-29T13:18:47Z</time>
      </trkpt>
      <trkpt lat="40.83166869867493" lon="111.75215276270424">
        <ele>1048.315673828125</ele>
        <time>2026-07-29T13:19:14Z</time>
      </trkpt>
      <trkpt lat="40.83173967878813" lon="111.75226880178786">
        <ele>1047.2239990234375</ele>
        <time>2026-07-29T13:19:29Z</time>
      </trkpt>
      <trkpt lat="40.83180166990743" lon="111.75239484706161">
        <ele>1048.8565673828125</ele>
        <time>2026-07-29T13:19:59Z</time>
      </trkpt>
      <trkpt lat="40.831847680462765" lon="111.75253890315578">
        <ele>1049.4490966796875</ele>
        <time>2026-07-29T13:20:14Z</time>
      </trkpt>
      <trkpt lat="40.83185069875507" lon="111.75260092990897">
        <ele>1048.3865966796875</ele>
        <time>2026-07-29T13:20:20Z</time>
      </trkpt>
      <trkpt lat="40.83188069447291" lon="111.75265995186616">
        <ele>1045.563232421875</ele>
        <time>2026-07-29T13:20:29Z</time>
      </trkpt>
      <trkpt lat="40.83198459908008" lon="111.75262492230085">
        <ele>1044.419677734375</ele>
        <time>2026-07-29T13:20:44Z</time>
      </trkpt>
      <trkpt lat="40.83211956363502" lon="111.75283999993783">
        <ele>1047.4151611328125</ele>
        <time>2026-07-29T13:21:11Z</time>
      </trkpt>
      <trkpt lat="40.832160587232465" lon="111.75300306867086">
        <ele>1046.651611328125</ele>
        <time>2026-07-29T13:21:23Z</time>
      </trkpt>
      <trkpt lat="40.83220556472869" lon="111.75304208054199">
        <ele>1045.8770751953125</ele>
        <time>2026-07-29T13:21:29Z</time>
      </trkpt>
      <trkpt lat="40.83215660307468" lon="111.75303908580221">
        <ele>1040.7869873046875</ele>
        <time>2026-07-29T13:23:17Z</time>
      </trkpt>
      <trkpt lat="40.83192787872741" lon="111.7532962371813">
        <ele>1043.4176025390625</ele>
        <time>2026-07-29T13:23:35Z</time>
      </trkpt>
      <trkpt lat="40.83185496568022" lon="111.75337428425682">
        <ele>1043.3050537109375</ele>
        <time>2026-07-29T13:23:38Z</time>
      </trkpt>
      <trkpt lat="40.8311825968342" lon="111.75361949428462">
        <ele>1039.084716796875</ele>
        <time>2026-07-29T13:23:50Z</time>
      </trkpt>
      <trkpt lat="40.829773917207454" lon="111.75411193307957">
        <ele>1043.87646484375</ele>
        <time>2026-07-29T13:24:14Z</time>
      </trkpt>
      <trkpt lat="40.82967701899859" lon="111.75417297777557">
        <ele>1044.1375732421875</ele>
        <time>2026-07-29T13:24:17Z</time>
      </trkpt>
      <trkpt lat="40.829723976554206" lon="111.75416096518245">
        <ele>1051.92822265625</ele>
        <time>2026-07-29T13:24:29Z</time>
      </trkpt>
      <trkpt lat="40.82960410482576" lon="111.75424202357854">
        <ele>1053.383544921875</ele>
        <time>2026-07-29T13:24:50Z</time>
      </trkpt>
      <trkpt lat="40.82954821400261" lon="111.75440311587587">
        <ele>1053.3909912109375</ele>
        <time>2026-07-29T13:24:53Z</time>
      </trkpt>
      <trkpt lat="40.82961231346076" lon="111.75477230622693">
        <ele>1049.9920654296875</ele>
        <time>2026-07-29T13:24:59Z</time>
      </trkpt>
      <trkpt lat="40.83040356470247" lon="111.75864969783522">
        <ele>1047.496826171875</ele>
        <time>2026-07-29T13:25:59Z</time>
      </trkpt>
      <trkpt lat="40.83040452887356" lon="111.75858665115243">
        <ele>1047.023681640625</ele>
        <time>2026-07-29T13:26:08Z</time>
      </trkpt>
      <trkpt lat="40.83055057686232" lon="111.75888185099313">
        <ele>1057.3626708984375</ele>
        <time>2026-07-29T13:26:29Z</time>
      </trkpt>
      <trkpt lat="40.83059162573442" lon="111.75902595419139">
        <ele>1056.2178955078125</ele>
        <time>2026-07-29T13:26:32Z</time>
      </trkpt>
      <trkpt lat="40.83066462377252" lon="111.75912501965263">
        <ele>1055.3016357421875</ele>
        <time>2026-07-29T13:26:35Z</time>
      </trkpt>
      <trkpt lat="40.83078456132277" lon="111.7591840485223">
        <ele>1053.695556640625</ele>
        <time>2026-07-29T13:26:41Z</time>
      </trkpt>
      <trkpt lat="40.830845505406536" lon="111.75917203105844">
        <ele>1053.7164306640625</ele>
        <time>2026-07-29T13:26:44Z</time>
      </trkpt>
      <trkpt lat="40.83350079461787" lon="111.758141908447">
        <ele>1048.64306640625</ele>
        <time>2026-07-29T13:27:29Z</time>
      </trkpt>
      <trkpt lat="40.83360865720961" lon="111.75804782675696">
        <ele>1048.8365478515625</ele>
        <time>2026-07-29T13:27:32Z</time>
      </trkpt>
      <trkpt lat="40.83386936404035" lon="111.75789168105653">
        <ele>1047.500732421875</ele>
        <time>2026-07-29T13:27:38Z</time>
      </trkpt>
      <trkpt lat="40.85585680800778" lon="111.74567184290198">
        <ele>0.0</ele>
        <time>2026-07-29T13:42:27Z</time>
      </trkpt>
      <trkpt lat="40.85587978503854" lon="111.7456148349107">
        <ele>0.0</ele>
        <time>2026-07-29T14:23:39Z</time>
      </trkpt>
      <trkpt lat="40.85586080466751" lon="111.74567084227196">
        <ele>0.0</ele>
        <time>2026-07-29T14:23:45Z</time>
      </trkpt>
    </trkseg>
  </trk>
</gpx>