<?xml version="1.0" encoding="UTF-8"?>
<gpx xmlns="http://www.topografix.com/GPX/1/1" xmlns:gpxtpx="http://www.garmin.com/xmlschemas/TrackPointExtension/v1" xmlns:xsi="http://www.w3.org/2001/XMLSchema-instance" xsi:schemaLocation="http://www.topografix.com/GPX/1/1 http://www.topografix.com/GPX/1/1/gpx.xsd" version="1.1" creator="gpx.py -- https://github.com/tkrajina/gpxpy">
  <trk>
    <name>gpx from keep</name>
    <type>Walk</type>
    <trkseg>
      <trkpt lat="40.86943951629421" lon="111.73126906192164">
        <ele>1073.2567138671875</ele>
        <time>2026-09-27T00:13:34Z</time>
      </trkpt>
      <trkpt lat="40.86953825036316" lon="111.73166979255575">
        <ele>1073.015625</ele>
        <time>2026-09-27T00:13:58Z</time>
      </trkpt>
      <trkpt lat="40.8696559905254" lon="111.732034550595">
        <ele>1069.3753662109375</ele>
        <time>2026-09-27T00:14:19Z</time>
      </trkpt>
      <trkpt lat="40.869747767229235" lon="111.73237533306694">
        <ele>1071.6995849609375</ele>
        <time>2026-09-27T00:14:40Z</time>
      </trkpt>
      <trkpt lat="40.869829572221995" lon="111.73267814465245">
        <ele>1071.6016845703125</ele>
        <time>2026-09-27T00:14:58Z</time>
      </trkpt>
      <trkpt lat="40.86984351647709" lon="111.73278508125243">
        <ele>1070.7291259765625</ele>
        <time>2026-09-27T00:15:04Z</time>
      </trkpt>
      <trkpt lat="40.86989044052893" lon="111.73287602302037">
        <ele>1070.6126708984375</ele>
        <time>2026-09-27T00:15:10Z</time>
      </trkpt>
      <trkpt lat="40.86999520849276" lon="111.73323880608915">
        <ele>1072.81298828125</ele>
        <time>2026-09-27T00:15:31Z</time>
      </trkpt>
      <trkpt lat="40.87009997374138" lon="111.73362158520183">
        <ele>1071.8651123046875</ele>
        <time>2026-09-27T00:15:55Z</time>
      </trkpt>
      <trkpt lat="40.87014390497449" lon="111.73370753384802">
        <ele>1071.555419921875</ele>
        <time>2026-09-27T00:16:01Z</time>
      </trkpt>
      <trkpt lat="40.87021969896006" lon="111.73409532344995">
        <ele>1072.079833984375</ele>
        <time>2026-09-27T00:16:25Z</time>
      </trkpt>
      <trkpt lat="40.87033247473174" lon="111.73446412489427">
        <ele>1072.104736328125</ele>
        <time>2026-09-27T00:16:49Z</time>
      </trkpt>
      <trkpt lat="40.870413307487134" lon="111.73475697333443">
        <ele>1071.853271484375</ele>
        <time>2026-09-27T00:17:07Z</time>
      </trkpt>
      <trkpt lat="40.8705161038536" lon="111.7351157930632">
        <ele>1072.3607177734375</ele>
        <time>2026-09-27T00:17:31Z</time>
      </trkpt>
      <trkpt lat="40.87061690140735" lon="111.73549161220846">
        <ele>1073.43798828125</ele>
        <time>2026-09-27T00:17:55Z</time>
      </trkpt>
      <trkpt lat="40.87066188399117" lon="111.73542863359819">
        <ele>1072.859130859375</ele>
        <time>2026-09-27T00:18:10Z</time>
      </trkpt>
      <trkpt lat="40.87072783404681" lon="111.7354146307715">
        <ele>1071.2958984375</ele>
        <time>2026-09-27T00:18:16Z</time>
      </trkpt>
      <trkpt lat="40.87101164543039" lon="111.735271655469">
        <ele>1072.2249755859375</ele>
        <time>2026-09-27T00:18:40Z</time>
      </trkpt>
      <trkpt lat="40.871290478230016" lon="111.73507770507491">
        <ele>1071.6014404296875</ele>
        <time>2026-09-27T00:19:04Z</time>
      </trkpt>
      <trkpt lat="40.87136543117579" lon="111.73503271545769">
        <ele>1071.4620361328125</ele>
        <time>2026-09-27T00:19:10Z</time>
      </trkpt>
      <trkpt lat="40.871517320461045" lon="111.73498871502258">
        <ele>1070.34765625</ele>
        <time>2026-09-27T00:19:22Z</time>
      </trkpt>
      <trkpt lat="40.87170421592379" lon="111.73483975880008">
        <ele>1071.17578125</ele>
        <time>2026-09-27T00:19:40Z</time>
      </trkpt>
      <trkpt lat="40.8718471179671" lon="111.73478076707926">
        <ele>1069.537841796875</ele>
        <time>2026-09-27T00:19:52Z</time>
      </trkpt>
      <trkpt lat="40.87208598408567" lon="111.73459582262987">
        <ele>1072.927734375</ele>
        <time>2026-09-27T00:20:16Z</time>
      </trkpt>
      <trkpt lat="40.87215293647065" lon="111.73457382411064">
        <ele>1073.4429931640625</ele>
        <time>2026-09-27T00:20:22Z</time>
      </trkpt>
      <trkpt lat="40.872433765875506" lon="111.73439887099113">
        <ele>1072.75048828125</ele>
        <time>2026-09-27T00:20:46Z</time>
      </trkpt>
      <trkpt lat="40.872580686467856" lon="111.73428090924848">
        <ele>1073.4698486328125</ele>
        <time>2026-09-27T00:20:58Z</time>
      </trkpt>
      <trkpt lat="40.872864506585195" lon="111.73412994620764">
        <ele>1073.131591796875</ele>
        <time>2026-09-27T00:21:22Z</time>
      </trkpt>
      <trkpt lat="40.873148341856535" lon="111.73394000431797">
        <ele>1072.7784423828125</ele>
        <time>2026-09-27T00:21:46Z</time>
      </trkpt>
      <trkpt lat="40.873289260065164" lon="111.73384703315739">
        <ele>1073.4876708984375</ele>
        <time>2026-09-27T00:21:58Z</time>
      </trkpt>
      <trkpt lat="40.873481165178355" lon="111.73367809540967">
        <ele>1069.571044921875</ele>
        <time>2026-09-27T00:22:16Z</time>
      </trkpt>
      <trkpt lat="40.87356310288353" lon="111.7336640916526">
        <ele>1073.6072998046875</ele>
        <time>2026-09-27T00:22:22Z</time>
      </trkpt>
      <trkpt lat="40.87362507227538" lon="111.73361011179821">
        <ele>1074.283935546875</ele>
        <time>2026-09-27T00:22:28Z</time>
      </trkpt>
      <trkpt lat="40.87366507102233" lon="111.73352715056213">
        <ele>1075.1611328125</ele>
        <time>2026-09-27T00:22:34Z</time>
      </trkpt>
      <trkpt lat="40.873805967853" lon="111.73349314961321">
        <ele>1075.5308837890625</ele>
        <time>2026-09-27T00:22:49Z</time>
      </trkpt>
      <trkpt lat="40.87387092930847" lon="111.73345416173801">
        <ele>1074.86328125</ele>
        <time>2026-09-27T00:22:55Z</time>
      </trkpt>
      <trkpt lat="40.873915920128645" lon="111.7333821945128">
        <ele>1074.8819580078125</ele>
        <time>2026-09-27T00:23:01Z</time>
      </trkpt>
      <trkpt lat="40.873920993781425" lon="111.73318430212534">
        <ele>1074.564453125</ele>
        <time>2026-09-27T00:23:13Z</time>
      </trkpt>
      <trkpt lat="40.873818236976334" lon="111.73279253634766">
        <ele>1074.0484619140625</ele>
        <time>2026-09-27T00:23:37Z</time>
      </trkpt>
      <trkpt lat="40.873712487494295" lon="111.73240277753733">
        <ele>1075.4869384765625</ele>
        <time>2026-09-27T00:24:01Z</time>
      </trkpt>
      <trkpt lat="40.87361474145264" lon="111.73200303140392">
        <ele>1075.9326171875</ele>
        <time>2026-09-27T00:24:25Z</time>
      </trkpt>
      <trkpt lat="40.873525002020045" lon="111.73158730233025">
        <ele>1075.9635009765625</ele>
        <time>2026-09-27T00:24:49Z</time>
      </trkpt>
      <trkpt lat="40.87342526498304" lon="111.73119756632569">
        <ele>1076.369873046875</ele>
        <time>2026-09-27T00:25:13Z</time>
      </trkpt>
      <trkpt lat="40.87332653127182" lon="111.7308108357832">
        <ele>1076.3084716796875</ele>
        <time>2026-09-27T00:25:37Z</time>
      </trkpt>
      <trkpt lat="40.873244797038836" lon="111.73040812146809">
        <ele>1069.8634033203125</ele>
        <time>2026-09-27T00:26:01Z</time>
      </trkpt>
      <trkpt lat="40.87313409472309" lon="111.73000142203473">
        <ele>1071.7755126953125</ele>
        <time>2026-09-27T00:26:25Z</time>
      </trkpt>
      <trkpt lat="40.87303738852244" lon="111.72959173113766">
        <ele>1072.505859375</ele>
        <time>2026-09-27T00:26:49Z</time>
      </trkpt>
      <trkpt lat="40.87293768767256" lon="111.72918804448132">
        <ele>1074.128662109375</ele>
        <time>2026-09-27T00:27:13Z</time>
      </trkpt>
      <trkpt lat="40.87283199269118" lon="111.72879335978">
        <ele>1074.556640625</ele>
        <time>2026-09-27T00:27:37Z</time>
      </trkpt>
      <trkpt lat="40.8727313038468" lon="111.72839068844299">
        <ele>1074.1142578125</ele>
        <time>2026-09-27T00:28:01Z</time>
      </trkpt>
      <trkpt lat="40.87265853458385" lon="111.72809593397996">
        <ele>1075.81396484375</ele>
        <time>2026-09-27T00:28:19Z</time>
      </trkpt>
      <trkpt lat="40.87258682427135" lon="111.72770626183642">
        <ele>1076.5909423828125</ele>
        <time>2026-09-27T00:28:43Z</time>
      </trkpt>
      <trkpt lat="40.87256389956806" lon="111.727612342743">
        <ele>1074.604736328125</ele>
        <time>2026-09-27T00:28:49Z</time>
      </trkpt>
      <trkpt lat="40.872583937338945" lon="111.72752241490798">
        <ele>1076.2548828125</ele>
        <time>2026-09-27T00:28:55Z</time>
      </trkpt>
      <trkpt lat="40.872647921543766" lon="111.72746145719695">
        <ele>1074.3961181640625</ele>
        <time>2026-09-27T00:29:01Z</time>
      </trkpt>
      <trkpt lat="40.872926794070366" lon="111.72729356066007">
        <ele>1074.1470947265625</ele>
        <time>2026-09-27T00:29:25Z</time>
      </trkpt>
      <trkpt lat="40.87320766284125" lon="111.72713066096787">
        <ele>1075.2742919921875</ele>
        <time>2026-09-27T00:29:49Z</time>
      </trkpt>
      <trkpt lat="40.873502523494814" lon="111.72696376412252">
        <ele>1075.169921875</ele>
        <time>2026-09-27T00:30:13Z</time>
      </trkpt>
      <trkpt lat="40.8738023809942" lon="111.72679686796316">
        <ele>1075.5640869140625</ele>
        <time>2026-09-27T00:30:37Z</time>
      </trkpt>
      <trkpt lat="40.874097236581875" lon="111.72664096419167">
        <ele>1075.7020263671875</ele>
        <time>2026-09-27T00:31:01Z</time>
      </trkpt>
      <trkpt lat="40.8743940926421" lon="111.72648306310732">
        <ele>1076.961669921875</ele>
        <time>2026-09-27T00:31:25Z</time>
      </trkpt>
      <trkpt lat="40.87463292638996" lon="111.72643507320028">
        <ele>1076.7554931640625</ele>
        <time>2026-09-27T00:31:43Z</time>
      </trkpt>
      <trkpt lat="40.874923796294816" lon="111.72626518526378">
        <ele>1076.462890625</ele>
        <time>2026-09-27T00:32:07Z</time>
      </trkpt>
      <trkpt lat="40.8752096660806" lon="111.72610329218351">
        <ele>1077.090087890625</ele>
        <time>2026-09-27T00:32:31Z</time>
      </trkpt>
      <trkpt lat="40.87528062915543" lon="111.7260703123903">
        <ele>1076.621826171875</ele>
        <time>2026-09-27T00:32:37Z</time>
      </trkpt>
      <trkpt lat="40.87519284441904" lon="111.72585452100256">
        <ele>1075.181640625</ele>
        <time>2026-09-27T00:32:55Z</time>
      </trkpt>
      <trkpt lat="40.875128937141135" lon="111.72579458472264">
        <ele>1075.1939697265625</ele>
        <time>2026-09-27T00:33:01Z</time>
      </trkpt>
      <trkpt lat="40.87497805237545" lon="111.72580859236658">
        <ele>1076.74267578125</ele>
        <time>2026-09-27T00:33:13Z</time>
      </trkpt>
      <trkpt lat="40.87469819175995" lon="111.7259465041641">
        <ele>1078.688720703125</ele>
        <time>2026-09-27T00:33:37Z</time>
      </trkpt>
      <trkpt lat="40.87441832326651" lon="111.72609740513253">
        <ele>1078.1822509765625</ele>
        <time>2026-09-27T00:34:01Z</time>
      </trkpt>
      <trkpt lat="40.87413245855342" lon="111.72625130533572">
        <ele>1076.6226806640625</ele>
        <time>2026-09-27T00:34:25Z</time>
      </trkpt>
      <trkpt lat="40.873849588960255" lon="111.72641020184301">
        <ele>1079.0302734375</ele>
        <time>2026-09-27T00:34:49Z</time>
      </trkpt>
      <trkpt lat="40.87355872108782" lon="111.72657809274305">
        <ele>1080.7685546875</ele>
        <time>2026-09-27T00:35:13Z</time>
      </trkpt>
      <trkpt lat="40.87342177289008" lon="111.72667402704276">
        <ele>1079.46826171875</ele>
        <time>2026-09-27T00:35:25Z</time>
      </trkpt>
      <trkpt lat="40.87326886982358" lon="111.72672000758057">
        <ele>1078.258056640625</ele>
        <time>2026-09-27T00:35:37Z</time>
      </trkpt>
      <trkpt lat="40.87299798852513" lon="111.72688590003965">
        <ele>1080.1844482421875</ele>
        <time>2026-09-27T00:36:01Z</time>
      </trkpt>
      <trkpt lat="40.872711126964525" lon="111.72704280373648">
        <ele>1079.64453125</ele>
        <time>2026-09-27T00:36:25Z</time>
      </trkpt>
      <trkpt lat="40.87242425578973" lon="111.72721669419646">
        <ele>1080.1270751953125</ele>
        <time>2026-09-27T00:36:49Z</time>
      </trkpt>
      <trkpt lat="40.872150380447685" lon="111.72738159194351">
        <ele>1080.797607421875</ele>
        <time>2026-09-27T00:37:13Z</time>
      </trkpt>
      <trkpt lat="40.871869512425505" lon="111.72754549280975">
        <ele>1078.6922607421875</ele>
        <time>2026-09-27T00:37:37Z</time>
      </trkpt>
      <trkpt lat="40.871602621867815" lon="111.72772937660562">
        <ele>1075.9530029296875</ele>
        <time>2026-09-27T00:38:01Z</time>
      </trkpt>
      <trkpt lat="40.871316755824985" lon="111.72790027524458">
        <ele>1076.6654052734375</ele>
        <time>2026-09-27T00:38:25Z</time>
      </trkpt>
      <trkpt lat="40.87102789386071" lon="111.7280701765372">
        <ele>1074.581787109375</ele>
        <time>2026-09-27T00:38:49Z</time>
      </trkpt>
      <trkpt lat="40.87074302036652" lon="111.72825606593477">
        <ele>1075.2777099609375</ele>
        <time>2026-09-27T00:39:13Z</time>
      </trkpt>
      <trkpt lat="40.87045315449285" lon="111.72843796087338">
        <ele>1078.32666015625</ele>
        <time>2026-09-27T00:39:37Z</time>
      </trkpt>
      <trkpt lat="40.87018527450681" lon="111.72861485836148">
        <ele>1075.2274169921875</ele>
        <time>2026-09-27T00:40:01Z</time>
      </trkpt>
      <trkpt lat="40.86991838755144" lon="111.72880474723513">
        <ele>1074.8446044921875</ele>
        <time>2026-09-27T00:40:25Z</time>
      </trkpt>
      <trkpt lat="40.869653506848465" lon="111.72898264676543">
        <ele>1073.2816162109375</ele>
        <time>2026-09-27T00:40:49Z</time>
      </trkpt>
      <trkpt lat="40.869368638818415" lon="111.72916954380194">
        <ele>1074.12890625</ele>
        <time>2026-09-27T00:41:13Z</time>
      </trkpt>
      <trkpt lat="40.86909875646725" lon="111.72936243607423">
        <ele>1072.3427734375</ele>
        <time>2026-09-27T00:41:37Z</time>
      </trkpt>
      <trkpt lat="40.86896781917826" lon="111.72944639159589">
        <ele>1072.1646728515625</ele>
        <time>2026-09-27T00:41:49Z</time>
      </trkpt>
      <trkpt lat="40.86893980275528" lon="111.72952034083536">
        <ele>1071.637939453125</ele>
        <time>2026-09-27T00:41:55Z</time>
      </trkpt>
      <trkpt lat="40.86901354662251" lon="111.72989206062158">
        <ele>1070.9256591796875</ele>
        <time>2026-09-27T00:42:25Z</time>
      </trkpt>
      <trkpt lat="40.86910239099638" lon="111.73005193445212">
        <ele>1070.1309814453125</ele>
        <time>2026-09-27T00:42:37Z</time>
      </trkpt>
      <trkpt lat="40.869141262252136" lon="111.73024179533559">
        <ele>1071.390625</ele>
        <time>2026-09-27T00:42:49Z</time>
      </trkpt>
      <trkpt lat="40.86923700327427" lon="111.730602532996">
        <ele>1071.1552734375</ele>
        <time>2026-09-27T00:43:13Z</time>
      </trkpt>
      <trkpt lat="40.86935772660492" lon="111.73096727111081">
        <ele>1068.83154296875</ele>
        <time>2026-09-27T00:43:37Z</time>
      </trkpt>
      <trkpt lat="40.869410585668064" lon="111.73117212897567">
        <ele>1071.6795654296875</ele>
        <time>2026-09-27T00:44:04Z</time>
      </trkpt>
    </trkseg>
  </trk>
</gpx>